State,County,Operator,Site Name,USGS_State,USGS_County,USGS_Site_Name,Latitude,Longitude,TRI_State,TRI_County,TRI_Parent Company,TRI_Site_Name,TRI_Latitude,TRI_Longitude,TRI_Chemical,TRI Fugitive Emissions (Pounds),TRI Stack Emissions (Pounds),USGS-TRI Distance (km),NEI_State,NEI_County,NEI_Site_Name,NEI_Latitude,NEI_Longitude,NEI_Pollutant,NEI Emissions (tons),NEI_Pollutant_Type,USGS-NEI Distance (km),Primary Production Descriptor,Secondary Production Descriptor,Primary 2022 Production (kt),Secondary 2022 Production (kt),Primary 2021 Production (kt),Secondary 2021 Production (kt),Primary 2020 Production (kt),Secondary 2020 Production (kt),Primary 2019 Production (kt),Secondary 2019 Production (kt),Reported units,Source,Status,Category
UTAH,Salt Lake,Kennecott Utah Copper LLC,Bingham Canyon Mine,Utah,Salt Lake,Bingham Canyon,40.52074,-112.1458,UT,SALT LAKE,RIO TINTO AMERICA INC,KENNECOTT UTAH COPPER MINE CONCENTRATORS & POWER PLANT,40.516666,-112.150002,Ethylene glycol,52,,0.575730601,,,,,,,,,,Copper (mined),Copper (refined),179.2,148.3,159.4,143.3,140,84.8,,,kt,Rio Tinto Annual Report 2022,Active,Copper
UTAH,Salt Lake,Kennecott Utah Copper LLC,Bingham Canyon Mine,Utah,Salt Lake,Bingham Canyon,40.52074,-112.1458,UT,SALT LAKE,RIO TINTO AMERICA INC,KENNECOTT UTAH COPPER MINE CONCENTRATORS & POWER PLANT,40.516666,-112.150002,Naphthalene,294.83,17,0.575730601,,,,,,,,,,Copper (mined),Copper (refined),179.2,148.3,159.4,143.3,140,84.8,,,kt,Rio Tinto Annual Report 2022,Active,Copper
UTAH,Salt Lake,Kennecott Utah Copper LLC,Bingham Canyon Mine,Utah,Salt Lake,Bingham Canyon,40.52074,-112.1458,UT,SALT LAKE,RIO TINTO AMERICA INC,KENNECOTT UTAH COPPER MINE CONCENTRATORS & POWER PLANT,40.516666,-112.150002,Cyanide compounds,2679,,0.575730601,,,,,,,,,,Copper (mined),Copper (refined),179.2,148.3,159.4,143.3,140,84.8,,,kt,Rio Tinto Annual Report 2022,Active,Copper
UTAH,Salt Lake,Kennecott Utah Copper LLC,Bingham Canyon Mine,Utah,Salt Lake,Bingham Canyon,40.52074,-112.1458,UT,SALT LAKE,RIO TINTO AMERICA INC,KENNECOTT UTAH COPPER MINE CONCENTRATORS & POWER PLANT,40.516666,-112.150002,Ammonia,3373,277,0.575730601,,,,,,,,,,Copper (mined),Copper (refined),179.2,148.3,159.4,143.3,140,84.8,,,kt,Rio Tinto Annual Report 2022,Active,Copper
UTAH,Salt Lake,Kennecott Utah Copper LLC,Bingham Canyon Mine,Utah,Salt Lake,Bingham Canyon,40.52074,-112.1458,UT,SALT LAKE,RIO TINTO AMERICA INC,KENNECOTT UTAH COPPER MINE CONCENTRATORS & POWER PLANT,40.516666,-112.150002,Asbestos (friable),,,0.575730601,,,,,,,,,,Copper (mined),Copper (refined),179.2,148.3,159.4,143.3,140,84.8,,,kt,Rio Tinto Annual Report 2022,Active,Copper
UTAH,Salt Lake,Kennecott Utah Copper LLC,Bingham Canyon Mine,Utah,Salt Lake,Bingham Canyon,40.52074,-112.1458,UT,SALT LAKE,RIO TINTO AMERICA INC,KENNECOTT UTAH COPPER MINE CONCENTRATORS & POWER PLANT,40.516666,-112.150002,Chromium  and Chromium Compounds(except for chromite ore mined in the Transvaal Region),294.29,5,0.575730601,,,,,,,,,,Copper (mined),Copper (refined),179.2,148.3,159.4,143.3,140,84.8,,,kt,Rio Tinto Annual Report 2022,Active,Copper
UTAH,Salt Lake,Kennecott Utah Copper LLC,Bingham Canyon Mine,Utah,Salt Lake,Bingham Canyon,40.52074,-112.1458,UT,SALT LAKE,RIO TINTO AMERICA INC,KENNECOTT UTAH COPPER MINE CONCENTRATORS & POWER PLANT,40.516666,-112.150002,Manganese  And Manganese Compounds,210.55,11,0.575730601,,,,,,,,,,Copper (mined),Copper (refined),179.2,148.3,159.4,143.3,140,84.8,,,kt,Rio Tinto Annual Report 2022,Active,Copper
UTAH,Salt Lake,Kennecott Utah Copper LLC,Bingham Canyon Mine,Utah,Salt Lake,Bingham Canyon,40.52074,-112.1458,UT,SALT LAKE,RIO TINTO AMERICA INC,KENNECOTT UTAH COPPER MINE CONCENTRATORS & POWER PLANT,40.516666,-112.150002,Lead  And Lead Compounds,550.95,18,0.575730601,,,,,,,,,,Copper (mined),Copper (refined),179.2,148.3,159.4,143.3,140,84.8,,,kt,Rio Tinto Annual Report 2022,Active,Copper
UTAH,Salt Lake,Kennecott Utah Copper LLC,Bingham Canyon Mine,Utah,Salt Lake,Bingham Canyon,40.52074,-112.1458,UT,SALT LAKE,RIO TINTO AMERICA INC,KENNECOTT UTAH COPPER MINE CONCENTRATORS & POWER PLANT,40.516666,-112.150002,Nitrate compounds (water dissociable; reportable only when in aqueous solution),,,0.575730601,,,,,,,,,,Copper (mined),Copper (refined),179.2,148.3,159.4,143.3,140,84.8,,,kt,Rio Tinto Annual Report 2022,Active,Copper
UTAH,Salt Lake,Kennecott Utah Copper LLC,Bingham Canyon Mine,Utah,Salt Lake,Bingham Canyon,40.52074,-112.1458,UT,SALT LAKE,RIO TINTO AMERICA INC,KENNECOTT UTAH COPPER MINE CONCENTRATORS & POWER PLANT,40.516666,-112.150002,Mercury  And Mercury Compounds,,5,0.575730601,,,,,,,,,,Copper (mined),Copper (refined),179.2,148.3,159.4,143.3,140,84.8,,,kt,Rio Tinto Annual Report 2022,Active,Copper
UTAH,Salt Lake,Kennecott Utah Copper LLC,Bingham Canyon Mine,Utah,Salt Lake,Bingham Canyon,40.52074,-112.1458,UT,SALT LAKE,RIO TINTO AMERICA INC,KENNECOTT UTAH COPPER MINE CONCENTRATORS & POWER PLANT,40.516666,-112.150002,Cresol (mixed isomers),250,,0.575730601,,,,,,,,,,Copper (mined),Copper (refined),179.2,148.3,159.4,143.3,140,84.8,,,kt,Rio Tinto Annual Report 2022,Active,Copper
UTAH,Salt Lake,Kennecott Utah Copper LLC,Bingham Canyon Mine,Utah,Salt Lake,Bingham Canyon,40.52074,-112.1458,UT,SALT LAKE,RIO TINTO AMERICA INC,KENNECOTT UTAH COPPER MINE CONCENTRATORS & POWER PLANT,40.516666,-112.150002,Antimony  And Antimony Compounds,,,0.575730601,,,,,,,,,,Copper (mined),Copper (refined),179.2,148.3,159.4,143.3,140,84.8,,,kt,Rio Tinto Annual Report 2022,Active,Copper
UTAH,Salt Lake,Kennecott Utah Copper LLC,Bingham Canyon Mine,Utah,Salt Lake,Bingham Canyon,40.52074,-112.1458,UT,SALT LAKE,RIO TINTO AMERICA INC,KENNECOTT UTAH COPPER MINE CONCENTRATORS & POWER PLANT,40.516666,-112.150002,Nickel  And Nickel Compounds,54.5,5,0.575730601,,,,,,,,,,Copper (mined),Copper (refined),179.2,148.3,159.4,143.3,140,84.8,,,kt,Rio Tinto Annual Report 2022,Active,Copper
UTAH,Salt Lake,Kennecott Utah Copper LLC,Bingham Canyon Mine,Utah,Salt Lake,Bingham Canyon,40.52074,-112.1458,UT,SALT LAKE,RIO TINTO AMERICA INC,KENNECOTT UTAH COPPER MINE CONCENTRATORS & POWER PLANT,40.516666,-112.150002,Aluminum (fume or dust),126469.85,,0.575730601,,,,,,,,,,Copper (mined),Copper (refined),179.2,148.3,159.4,143.3,140,84.8,,,kt,Rio Tinto Annual Report 2022,Active,Copper
UTAH,Salt Lake,Kennecott Utah Copper LLC,Bingham Canyon Mine,Utah,Salt Lake,Bingham Canyon,40.52074,-112.1458,UT,SALT LAKE,RIO TINTO AMERICA INC,KENNECOTT UTAH COPPER MINE CONCENTRATORS & POWER PLANT,40.516666,-112.150002,Cadmium  And Cadmium Compounds,1.24,5,0.575730601,,,,,,,,,,Copper (mined),Copper (refined),179.2,148.3,159.4,143.3,140,84.8,,,kt,Rio Tinto Annual Report 2022,Active,Copper
UTAH,Salt Lake,Kennecott Utah Copper LLC,Bingham Canyon Mine,Utah,Salt Lake,Bingham Canyon,40.52074,-112.1458,UT,SALT LAKE,RIO TINTO AMERICA INC,KENNECOTT UTAH COPPER MINE CONCENTRATORS & POWER PLANT,40.516666,-112.150002,Copper  And Copper Compounds,12,11,0.575730601,,,,,,,,,,Copper (mined),Copper (refined),179.2,148.3,159.4,143.3,140,84.8,,,kt,Rio Tinto Annual Report 2022,Active,Copper
UTAH,Salt Lake,Kennecott Utah Copper LLC,Bingham Canyon Mine,Utah,Salt Lake,Bingham Canyon,40.52074,-112.1458,UT,SALT LAKE,RIO TINTO AMERICA INC,KENNECOTT UTAH COPPER MINE CONCENTRATORS & POWER PLANT,40.516666,-112.150002,Selenium  And Selenium Compounds,,27,0.575730601,,,,,,,,,,Copper (mined),Copper (refined),179.2,148.3,159.4,143.3,140,84.8,,,kt,Rio Tinto Annual Report 2022,Active,Copper
UTAH,Salt Lake,Kennecott Utah Copper LLC,Bingham Canyon Mine,Utah,Salt Lake,Bingham Canyon,40.52074,-112.1458,UT,SALT LAKE,RIO TINTO AMERICA INC,KENNECOTT UTAH COPPER MINE CONCENTRATORS & POWER PLANT,40.516666,-112.150002,Silver And Silver Compounds,,12,0.575730601,,,,,,,,,,Copper (mined),Copper (refined),179.2,148.3,159.4,143.3,140,84.8,,,kt,Rio Tinto Annual Report 2022,Active,Copper
UTAH,Salt Lake,Kennecott Utah Copper LLC,Bingham Canyon Mine,Utah,Salt Lake,Bingham Canyon,40.52074,-112.1458,UT,SALT LAKE,RIO TINTO AMERICA INC,KENNECOTT UTAH COPPER MINE CONCENTRATORS & POWER PLANT,40.516666,-112.150002,Dioxin and dioxin-like compounds,0.0005344,,0.575730601,,,,,,,,,,Copper (mined),Copper (refined),179.2,148.3,159.4,143.3,140,84.8,,,kt,Rio Tinto Annual Report 2022,Active,Copper
UTAH,Salt Lake,Kennecott Utah Copper LLC,Bingham Canyon Mine,Utah,Salt Lake,Bingham Canyon,40.52074,-112.1458,UT,SALT LAKE,RIO TINTO AMERICA INC,KENNECOTT UTAH COPPER MINE CONCENTRATORS & POWER PLANT,40.516666,-112.150002,"Sulfuric acid (acid aerosols including mists, vapors, gas, fog, and other airborne forms of any particle size)",,,0.575730601,,,,,,,,,,Copper (mined),Copper (refined),179.2,148.3,159.4,143.3,140,84.8,,,kt,Rio Tinto Annual Report 2022,Active,Copper
UTAH,Salt Lake,Kennecott Utah Copper LLC,Bingham Canyon Mine,Utah,Salt Lake,Bingham Canyon,40.52074,-112.1458,UT,SALT LAKE,RIO TINTO AMERICA INC,KENNECOTT UTAH COPPER MINE CONCENTRATORS & POWER PLANT,40.516666,-112.150002,Arsenic  And Arsenic Compounds,,7,0.575730601,,,,,,,,,,Copper (mined),Copper (refined),179.2,148.3,159.4,143.3,140,84.8,,,kt,Rio Tinto Annual Report 2022,Active,Copper
ARIZONA,Gila,Carlota Copper Company,Carlota Copper Company,Arizona,GILA,CARLOTA COPPER CO,33.38644,-110.98265,AZ,GILA,ROBINSON HOLDINGS (USA),CARLOTA COPPER CO,33.38644,-110.98265,Copper,,,,,,,,,,,,,Payable Cu production,,4.1,,,,,,,,kt,KGHM Integrated Report 2022,Active,Copper
ARIZONA,Gila,Carlota Copper Company,Carlota Copper Company,Arizona,GILA,CARLOTA COPPER CO,33.38644,-110.98265,AZ,GILA,ROBINSON HOLDINGS (USA),CARLOTA COPPER CO,33.38644,-110.98265,Naphthalene,,,,,,,,,,,,,Payable Cu production,,4.1,,,,,,,,kt,KGHM Integrated Report 2022,Active,Copper
ARIZONA,Gila,Carlota Copper Company,Carlota Copper Company,Arizona,GILA,CARLOTA COPPER CO,33.38644,-110.98265,AZ,GILA,ROBINSON HOLDINGS (USA),CARLOTA COPPER CO,33.38644,-110.98265,Cobalt compounds,,,,,,,,,,,,,Payable Cu production,,4.1,,,,,,,,kt,KGHM Integrated Report 2022,Active,Copper
ARIZONA,Gila,Carlota Copper Company,Carlota Copper Company,Arizona,GILA,CARLOTA COPPER CO,33.38644,-110.98265,AZ,GILA,ROBINSON HOLDINGS (USA),CARLOTA COPPER CO,33.38644,-110.98265,"Sulfuric acid (acid aerosols including mists, vapors, gas, fog, and other airborne forms of any particle size)",11160,,,,,,,,,,,,Payable Cu production,,4.1,,,,,,,,kt,KGHM Integrated Report 2022,Active,Copper
ARIZONA,Gila,Carlota Copper Company,Carlota Copper Company,Arizona,GILA,CARLOTA COPPER CO,33.38644,-110.98265,AZ,GILA,ROBINSON HOLDINGS (USA),CARLOTA COPPER CO,33.38644,-110.98265,Lead compounds,3,,,,,,,,,,,,Payable Cu production,,4.1,,,,,,,,kt,KGHM Integrated Report 2022,Active,Copper
NEW MEXICO,Grant,Freeport-McMoRan Chino Mines Company,Chino Mines Co Mine,New Mexico,Grant,Chino Mine,32.794,-108.06644,NM,GRANT,FREEPORT-MCMORAN INC,CHINO MINES CO MINE CONCENTRATOR-SXEW PLANTS,32.791667,-108.067222,Chromium,,,0.268900845,New Mexico,NM - Grant,Chino Mine,32.7897,-108.0682,Carbon Dioxide,12481.6007,GHG,0.504566992,Copper production,,,,56.24545388,,41.73049804,,79.37866475,,kt,Freeport-McMoran Annual Report 2022,Active,Copper
NEW MEXICO,Grant,Freeport-McMoRan Chino Mines Company,Chino Mines Co Mine,New Mexico,Grant,Chino Mine,32.794,-108.06644,NM,GRANT,FREEPORT-MCMORAN INC,CHINO MINES CO MINE CONCENTRATOR-SXEW PLANTS,32.791667,-108.067222,Manganese,5,,0.268900845,New Mexico,NM - Grant,Chino Mine,32.7897,-108.0682,PM10 Primary (Filt + Cond),489.777,CAP,0.504566992,Copper production,,,,56.24545388,,41.73049804,,79.37866475,,kt,Freeport-McMoran Annual Report 2022,Active,Copper
NEW MEXICO,Grant,Freeport-McMoRan Chino Mines Company,Chino Mines Co Mine,New Mexico,Grant,Chino Mine,32.794,-108.06644,NM,GRANT,FREEPORT-MCMORAN INC,CHINO MINES CO MINE CONCENTRATOR-SXEW PLANTS,32.791667,-108.067222,Nitrate compounds (water dissociable; reportable only when in aqueous solution),,,0.268900845,New Mexico,NM - Grant,Chino Mine,32.7897,-108.0682,Carbon Monoxide,73.204,CAP,0.504566992,Copper production,,,,56.24545388,,41.73049804,,79.37866475,,kt,Freeport-McMoran Annual Report 2022,Active,Copper
NEW MEXICO,Grant,Freeport-McMoRan Chino Mines Company,Chino Mines Co Mine,New Mexico,Grant,Chino Mine,32.794,-108.06644,NM,GRANT,FREEPORT-MCMORAN INC,CHINO MINES CO MINE CONCENTRATOR-SXEW PLANTS,32.791667,-108.067222,Copper  And Copper Compounds,3800,250,0.268900845,New Mexico,NM - Grant,Chino Mine,32.7897,-108.0682,PM2.5 Primary (Filt + Cond),54.458392,CAP,0.504566992,Copper production,,,,56.24545388,,41.73049804,,79.37866475,,kt,Freeport-McMoran Annual Report 2022,Active,Copper
NEW MEXICO,Grant,Freeport-McMoRan Chino Mines Company,Chino Mines Co Mine,New Mexico,Grant,Chino Mine,32.794,-108.06644,NM,GRANT,FREEPORT-MCMORAN INC,CHINO MINES CO MINE CONCENTRATOR-SXEW PLANTS,32.791667,-108.067222,Cobalt  And Cobalt Compounds,,,0.268900845,New Mexico,NM - Grant,Chino Mine,32.7897,-108.0682,Nitrogen Oxides,10.181,CAP,0.504566992,Copper production,,,,56.24545388,,41.73049804,,79.37866475,,kt,Freeport-McMoran Annual Report 2022,Active,Copper
NEW MEXICO,Grant,Freeport-McMoRan Chino Mines Company,Chino Mines Co Mine,New Mexico,Grant,Chino Mine,32.794,-108.06644,NM,GRANT,FREEPORT-MCMORAN INC,CHINO MINES CO MINE CONCENTRATOR-SXEW PLANTS,32.791667,-108.067222,Lead  And Lead Compounds,80.2,,0.268900845,New Mexico,NM - Grant,Chino Mine,32.7897,-108.0682,Volatile Organic Compounds,0.895,CAP,0.504566992,Copper production,,,,56.24545388,,41.73049804,,79.37866475,,kt,Freeport-McMoran Annual Report 2022,Active,Copper
NEW MEXICO,Grant,Freeport-McMoRan Chino Mines Company,Chino Mines Co Mine,New Mexico,Grant,Chino Mine,32.794,-108.06644,NM,GRANT,FREEPORT-MCMORAN INC,CHINO MINES CO MINE CONCENTRATOR-SXEW PLANTS,32.791667,-108.067222,Nickel,,,0.268900845,New Mexico,NM - Grant,Chino Mine,32.7897,-108.0682,Methane,0.240303879,GHG,0.504566992,Copper production,,,,56.24545388,,41.73049804,,79.37866475,,kt,Freeport-McMoran Annual Report 2022,Active,Copper
NEW MEXICO,Grant,Freeport-McMoRan Chino Mines Company,Chino Mines Co Mine,New Mexico,Grant,Chino Mine,32.794,-108.06644,NM,GRANT,FREEPORT-MCMORAN INC,CHINO MINES CO MINE CONCENTRATOR-SXEW PLANTS,32.791667,-108.067222,"Sulfuric acid (acid aerosols including mists, vapors, gas, fog, and other airborne forms of any particle size)",3400,,0.268900845,New Mexico,NM - Grant,Chino Mine,32.7897,-108.0682,Formaldehyde,0.0778618,HAP,0.504566992,Copper production,,,,56.24545388,,41.73049804,,79.37866475,,kt,Freeport-McMoran Annual Report 2022,Active,Copper
NEW MEXICO,Grant,Freeport-McMoRan Chino Mines Company,Chino Mines Co Mine,New Mexico,Grant,Chino Mine,32.794,-108.06644,NM,GRANT,FREEPORT-MCMORAN INC,CHINO MINES CO MINE CONCENTRATOR-SXEW PLANTS,32.791667,-108.067222,Arsenic,,,0.268900845,New Mexico,NM - Grant,Chino Mine,32.7897,-108.0682,Sulfur Dioxide,0.062,CAP,0.504566992,Copper production,,,,56.24545388,,41.73049804,,79.37866475,,kt,Freeport-McMoran Annual Report 2022,Active,Copper
NEW MEXICO,Grant,Freeport-McMoRan Chino Mines Company,Chino Mines Co Mine,New Mexico,Grant,Chino Mine,32.794,-108.06644,NM,GRANT,FREEPORT-MCMORAN INC,CHINO MINES CO MINE CONCENTRATOR-SXEW PLANTS,32.791667,-108.067222,Ammonia,750,,0.268900845,New Mexico,NM - Grant,Chino Mine,32.7897,-108.0682,Lead Compounds,0.04055,CAP/HAP,0.504566992,Copper production,,,,56.24545388,,41.73049804,,79.37866475,,kt,Freeport-McMoran Annual Report 2022,Active,Copper
NEW MEXICO,Grant,Freeport-McMoRan Chino Mines Company,Chino Mines Co Mine,New Mexico,Grant,Chino Mine,32.794,-108.06644,,,,,,,,,,,New Mexico,NM - Grant,Chino Mine,32.7897,-108.0682,Nitrous Oxide,0.025353162,GHG,0.504566992,Copper production,,,,56.24545388,,41.73049804,,79.37866475,,kt,Freeport-McMoran Annual Report 2022,Active,Copper
NEW MEXICO,Grant,Freeport-McMoRan Chino Mines Company,Chino Mines Co Mine,New Mexico,Grant,Chino Mine,32.794,-108.06644,,,,,,,,,,,New Mexico,NM - Grant,Chino Mine,32.7897,-108.0682,Toluene,0.0142726,HAP,0.504566992,Copper production,,,,56.24545388,,41.73049804,,79.37866475,,kt,Freeport-McMoran Annual Report 2022,Active,Copper
NEW MEXICO,Grant,Freeport-McMoRan Chino Mines Company,Chino Mines Co Mine,New Mexico,Grant,Chino Mine,32.794,-108.06644,,,,,,,,,,,New Mexico,NM - Grant,Chino Mine,32.7897,-108.0682,Xylenes (Mixed Isomers),0.00703365,HAP,0.504566992,Copper production,,,,56.24545388,,41.73049804,,79.37866475,,kt,Freeport-McMoran Annual Report 2022,Active,Copper
NEW MEXICO,Grant,Freeport-McMoRan Chino Mines Company,Chino Mines Co Mine,New Mexico,Grant,Chino Mine,32.794,-108.06644,,,,,,,,,,,New Mexico,NM - Grant,Chino Mine,32.7897,-108.0682,Acetaldehyde,0.00444575,HAP,0.504566992,Copper production,,,,56.24545388,,41.73049804,,79.37866475,,kt,Freeport-McMoran Annual Report 2022,Active,Copper
NEW MEXICO,Grant,Freeport-McMoRan Chino Mines Company,Chino Mines Co Mine,New Mexico,Grant,Chino Mine,32.794,-108.06644,,,,,,,,,,,New Mexico,NM - Grant,Chino Mine,32.7897,-108.0682,Ethylbenzene,0.00350476,HAP,0.504566992,Copper production,,,,56.24545388,,41.73049804,,79.37866475,,kt,Freeport-McMoran Annual Report 2022,Active,Copper
NEW MEXICO,Grant,Freeport-McMoRan Chino Mines Company,Chino Mines Co Mine,New Mexico,Grant,Chino Mine,32.794,-108.06644,,,,,,,,,,,New Mexico,NM - Grant,Chino Mine,32.7897,-108.0682,Manganese Compounds,0.003,HAP,0.504566992,Copper production,,,,56.24545388,,41.73049804,,79.37866475,,kt,Freeport-McMoran Annual Report 2022,Active,Copper
NEW MEXICO,Grant,Freeport-McMoRan Chino Mines Company,Chino Mines Co Mine,New Mexico,Grant,Chino Mine,32.794,-108.06644,,,,,,,,,,,New Mexico,NM - Grant,Chino Mine,32.7897,-108.0682,Benzene,0.00139319,HAP,0.504566992,Copper production,,,,56.24545388,,41.73049804,,79.37866475,,kt,Freeport-McMoran Annual Report 2022,Active,Copper
NEW MEXICO,Grant,Freeport-McMoRan Chino Mines Company,Chino Mines Co Mine,New Mexico,Grant,Chino Mine,32.794,-108.06644,,,,,,,,,,,New Mexico,NM - Grant,Chino Mine,32.7897,-108.0682,Acrolein,0.000700948,HAP,0.504566992,Copper production,,,,56.24545388,,41.73049804,,79.37866475,,kt,Freeport-McMoran Annual Report 2022,Active,Copper
NEW MEXICO,Grant,Freeport-McMoRan Chino Mines Company,Chino Mines Co Mine,New Mexico,Grant,Chino Mine,32.794,-108.06644,,,,,,,,,,,New Mexico,NM - Grant,Chino Mine,32.7897,-108.0682,Naphthalene,0.00014954,HAP,0.504566992,Copper production,,,,56.24545388,,41.73049804,,79.37866475,,kt,Freeport-McMoran Annual Report 2022,Active,Copper
NEW MEXICO,Grant,Freeport-McMoRan Chino Mines Company,Chino Mines Co Mine,New Mexico,Grant,Chino Mine,32.794,-108.06644,,,,,,,,,,,New Mexico,NM - Grant,Chino Mine,32.7897,-108.0682,Polycyclic Organic Matter,5.69E-06,HAP,0.504566992,Copper production,,,,56.24545388,,41.73049804,,79.37866475,,kt,Freeport-McMoran Annual Report 2022,Active,Copper
NEW MEXICO,Grant,Freeport-McMoRan Chino Mines Company,Chino Mines Co Mine,New Mexico,Grant,Chino Mine,32.794,-108.06644,,,,,,,,,,,New Mexico,NM - Grant,Chino Mine,32.7897,-108.0682,Mercury Compounds,2.36E-08,HAP,0.504566992,Copper production,,,,56.24545388,,41.73049804,,79.37866475,,kt,Freeport-McMoran Annual Report 2022,Active,Copper
MONTANA,Silver Bow,"Montana Resources, LLC",Continental Mine,Montana,Silver Bow,Montana Resources (Butte/Berkely/Continental),46.0202,-112.52729,MT,SILVER BOW,,MONTANA RESOURCES LLC,46.007588,-112.501703,Zinc compounds,104.37,9.02,2.427289704,Montana,MT - Silver Bow,CONTINENTAL PIT,46.007588,-112.501703,PM10 Primary (Filt + Cond),904.6632734,CAP,2.427289704,Copper production,,,,24.94758035,,20.41165665,,21.77243376,,kt,Freeport-McMoran Annual Report 2022,Active,Copper
MONTANA,Silver Bow,"Montana Resources, LLC",Continental Mine,Montana,Silver Bow,Montana Resources (Butte/Berkely/Continental),46.0202,-112.52729,MT,SILVER BOW,,MONTANA RESOURCES LLC,46.007588,-112.501703,Lead compounds,1088.71,2.43,2.427289704,Montana,MT - Silver Bow,CONTINENTAL PIT,46.007588,-112.501703,Carbon Monoxide,279.7585,CAP,2.427289704,Copper production,,,,24.94758035,,20.41165665,,21.77243376,,kt,Freeport-McMoran Annual Report 2022,Active,Copper
MONTANA,Silver Bow,"Montana Resources, LLC",Continental Mine,Montana,Silver Bow,Montana Resources (Butte/Berkely/Continental),46.0202,-112.52729,MT,SILVER BOW,,MONTANA RESOURCES LLC,46.007588,-112.501703,Chromium,,,2.427289704,Montana,MT - Silver Bow,CONTINENTAL PIT,46.007588,-112.501703,PM2.5 Primary (Filt + Cond),101.1125562,CAP,2.427289704,Copper production,,,,24.94758035,,20.41165665,,21.77243376,,kt,Freeport-McMoran Annual Report 2022,Active,Copper
MONTANA,Silver Bow,"Montana Resources, LLC",Continental Mine,Montana,Silver Bow,Montana Resources (Butte/Berkely/Continental),46.0202,-112.52729,MT,SILVER BOW,,MONTANA RESOURCES LLC,46.007588,-112.501703,Manganese  And Manganese Compounds,87.8,7.6,2.427289704,Montana,MT - Silver Bow,CONTINENTAL PIT,46.007588,-112.501703,Nitrogen Oxides,70.9835,CAP,2.427289704,Copper production,,,,24.94758035,,20.41165665,,21.77243376,,kt,Freeport-McMoran Annual Report 2022,Active,Copper
MONTANA,Silver Bow,"Montana Resources, LLC",Continental Mine,Montana,Silver Bow,Montana Resources (Butte/Berkely/Continental),46.0202,-112.52729,MT,SILVER BOW,,MONTANA RESOURCES LLC,46.007588,-112.501703,Butyraldehyde,,,2.427289704,Montana,MT - Silver Bow,CONTINENTAL PIT,46.007588,-112.501703,Sulfur Dioxide,12.252,CAP,2.427289704,Copper production,,,,24.94758035,,20.41165665,,21.77243376,,kt,Freeport-McMoran Annual Report 2022,Active,Copper
MONTANA,Silver Bow,"Montana Resources, LLC",Continental Mine,Montana,Silver Bow,Montana Resources (Butte/Berkely/Continental),46.0202,-112.52729,MT,SILVER BOW,,MONTANA RESOURCES LLC,46.007588,-112.501703,Cadmium compounds,0.13,0.03,2.427289704,Montana,MT - Silver Bow,CONTINENTAL PIT,46.007588,-112.501703,Lead Compounds,0.823468,CAP/HAP,2.427289704,Copper production,,,,24.94758035,,20.41165665,,21.77243376,,kt,Freeport-McMoran Annual Report 2022,Active,Copper
MONTANA,Silver Bow,"Montana Resources, LLC",Continental Mine,Montana,Silver Bow,Montana Resources (Butte/Berkely/Continental),46.0202,-112.52729,MT,SILVER BOW,,MONTANA RESOURCES LLC,46.007588,-112.501703,Nitrate compounds (water dissociable; reportable only when in aqueous solution),25.59,,2.427289704,Montana,MT - Silver Bow,CONTINENTAL PIT,46.007588,-112.501703,Manganese Compounds,0.060745,HAP,2.427289704,Copper production,,,,24.94758035,,20.41165665,,21.77243376,,kt,Freeport-McMoran Annual Report 2022,Active,Copper
MONTANA,Silver Bow,"Montana Resources, LLC",Continental Mine,Montana,Silver Bow,Montana Resources (Butte/Berkely/Continental),46.0202,-112.52729,MT,SILVER BOW,,MONTANA RESOURCES LLC,46.007588,-112.501703,Polycyclic aromatic compounds,65.78,2.35,2.427289704,Montana,MT - Silver Bow,CONTINENTAL PIT,46.007588,-112.501703,Polycyclic Organic Matter,0.03638,HAP,2.427289704,Copper production,,,,24.94758035,,20.41165665,,21.77243376,,kt,Freeport-McMoran Annual Report 2022,Active,Copper
MONTANA,Silver Bow,"Montana Resources, LLC",Continental Mine,Montana,Silver Bow,Montana Resources (Butte/Berkely/Continental),46.0202,-112.52729,MT,SILVER BOW,,MONTANA RESOURCES LLC,46.007588,-112.501703,Nickel  And Nickel Compounds,3.58,0.21,2.427289704,Montana,MT - Silver Bow,CONTINENTAL PIT,46.007588,-112.501703,Volatile Organic Compounds,0.0156,CAP,2.427289704,Copper production,,,,24.94758035,,20.41165665,,21.77243376,,kt,Freeport-McMoran Annual Report 2022,Active,Copper
MONTANA,Silver Bow,"Montana Resources, LLC",Continental Mine,Montana,Silver Bow,Montana Resources (Butte/Berkely/Continental),46.0202,-112.52729,MT,SILVER BOW,,MONTANA RESOURCES LLC,46.007588,-112.501703,Copper  And Copper Compounds,775.6,76.1,2.427289704,Montana,MT - Silver Bow,CONTINENTAL PIT,46.007588,-112.501703,Cobalt Compounds,0.00146,HAP,2.427289704,Copper production,,,,24.94758035,,20.41165665,,21.77243376,,kt,Freeport-McMoran Annual Report 2022,Active,Copper
MONTANA,Silver Bow,"Montana Resources, LLC",Continental Mine,Montana,Silver Bow,Montana Resources (Butte/Berkely/Continental),46.0202,-112.52729,MT,SILVER BOW,,MONTANA RESOURCES LLC,46.007588,-112.501703,Cobalt compounds,3.04,0.3,2.427289704,Montana,MT - Silver Bow,CONTINENTAL PIT,46.007588,-112.501703,Nickel Compounds,0.0013815,HAP,2.427289704,Copper production,,,,24.94758035,,20.41165665,,21.77243376,,kt,Freeport-McMoran Annual Report 2022,Active,Copper
MONTANA,Silver Bow,"Montana Resources, LLC",Continental Mine,Montana,Silver Bow,Montana Resources (Butte/Berkely/Continental),46.0202,-112.52729,,,,,,,,,,,Montana,MT - Silver Bow,CONTINENTAL PIT,46.007588,-112.501703,Cadmium Compounds,0.00008,HAP,2.427289704,Copper production,,,,24.94758035,,20.41165665,,21.77243376,,kt,Freeport-McMoran Annual Report 2022,Active,Copper
ARIZONA,Cochise,Freeport McMoRan Corporation,Copper Queen Branch,Arizona,Cochise,Uncle Sam Mine Copper Queen Gr.,31.43403,-109.92009,,,,,,,,,,,,,,,,,,,,,,,,,,,,,,,,Active,Copper
UTAH,Salt Lake,Rio Tinto Kennecott Copper LLC,Copperton Concentrator ,,SALT LAKE,KENNECOTT UTAH COPPER SMELTER & REFINERY,40.734036,-112.14104,UT,SALT LAKE,,KENNECOTT UTAH COPPER SMELTER & REFINERY,40.734036,-112.14104,Antimony  And Antimony Compounds,109,39,,,,,,,,,,,,,,,,,,,,,,,Active,Copper
UTAH,Salt Lake,Rio Tinto Kennecott Copper LLC,Copperton Concentrator ,,SALT LAKE,KENNECOTT UTAH COPPER SMELTER & REFINERY,40.734036,-112.14104,UT,SALT LAKE,,KENNECOTT UTAH COPPER SMELTER & REFINERY,40.734036,-112.14104,Silver And Silver Compounds,106,141,,,,,,,,,,,,,,,,,,,,,,,Active,Copper
UTAH,Salt Lake,Rio Tinto Kennecott Copper LLC,Copperton Concentrator ,,SALT LAKE,KENNECOTT UTAH COPPER SMELTER & REFINERY,40.734036,-112.14104,UT,SALT LAKE,,KENNECOTT UTAH COPPER SMELTER & REFINERY,40.734036,-112.14104,Ammonia,500,6101,,,,,,,,,,,,,,,,,,,,,,,Active,Copper
UTAH,Salt Lake,Rio Tinto Kennecott Copper LLC,Copperton Concentrator ,,SALT LAKE,KENNECOTT UTAH COPPER SMELTER & REFINERY,40.734036,-112.14104,UT,SALT LAKE,,KENNECOTT UTAH COPPER SMELTER & REFINERY,40.734036,-112.14104,Selenium  And Selenium Compounds,393,140,,,,,,,,,,,,,,,,,,,,,,,Active,Copper
UTAH,Salt Lake,Rio Tinto Kennecott Copper LLC,Copperton Concentrator ,,SALT LAKE,KENNECOTT UTAH COPPER SMELTER & REFINERY,40.734036,-112.14104,UT,SALT LAKE,,KENNECOTT UTAH COPPER SMELTER & REFINERY,40.734036,-112.14104,Chromium  and Chromium Compounds(except for chromite ore mined in the Transvaal Region),13,910,,,,,,,,,,,,,,,,,,,,,,,Active,Copper
UTAH,Salt Lake,Rio Tinto Kennecott Copper LLC,Copperton Concentrator ,,SALT LAKE,KENNECOTT UTAH COPPER SMELTER & REFINERY,40.734036,-112.14104,UT,SALT LAKE,,KENNECOTT UTAH COPPER SMELTER & REFINERY,40.734036,-112.14104,Ethylene glycol,,,,,,,,,,,,,,,,,,,,,,,,,Active,Copper
UTAH,Salt Lake,Rio Tinto Kennecott Copper LLC,Copperton Concentrator ,,SALT LAKE,KENNECOTT UTAH COPPER SMELTER & REFINERY,40.734036,-112.14104,UT,SALT LAKE,,KENNECOTT UTAH COPPER SMELTER & REFINERY,40.734036,-112.14104,Cadmium  And Cadmium Compounds,6,118,,,,,,,,,,,,,,,,,,,,,,,Active,Copper
UTAH,Salt Lake,Rio Tinto Kennecott Copper LLC,Copperton Concentrator ,,SALT LAKE,KENNECOTT UTAH COPPER SMELTER & REFINERY,40.734036,-112.14104,UT,SALT LAKE,,KENNECOTT UTAH COPPER SMELTER & REFINERY,40.734036,-112.14104,Arsenic  And Arsenic Compounds,1171,1125,,,,,,,,,,,,,,,,,,,,,,,Active,Copper
UTAH,Salt Lake,Rio Tinto Kennecott Copper LLC,Copperton Concentrator ,,SALT LAKE,KENNECOTT UTAH COPPER SMELTER & REFINERY,40.734036,-112.14104,UT,SALT LAKE,,KENNECOTT UTAH COPPER SMELTER & REFINERY,40.734036,-112.14104,Vanadium compounds,,143,,,,,,,,,,,,,,,,,,,,,,,Active,Copper
UTAH,Salt Lake,Rio Tinto Kennecott Copper LLC,Copperton Concentrator ,,SALT LAKE,KENNECOTT UTAH COPPER SMELTER & REFINERY,40.734036,-112.14104,UT,SALT LAKE,,KENNECOTT UTAH COPPER SMELTER & REFINERY,40.734036,-112.14104,Lead  And Lead Compounds,5148,2447,,,,,,,,,,,,,,,,,,,,,,,Active,Copper
UTAH,Salt Lake,Rio Tinto Kennecott Copper LLC,Copperton Concentrator ,,SALT LAKE,KENNECOTT UTAH COPPER SMELTER & REFINERY,40.734036,-112.14104,UT,SALT LAKE,,KENNECOTT UTAH COPPER SMELTER & REFINERY,40.734036,-112.14104,Thiourea,,,,,,,,,,,,,,,,,,,,,,,,,Active,Copper
UTAH,Salt Lake,Rio Tinto Kennecott Copper LLC,Copperton Concentrator ,,SALT LAKE,KENNECOTT UTAH COPPER SMELTER & REFINERY,40.734036,-112.14104,UT,SALT LAKE,,KENNECOTT UTAH COPPER SMELTER & REFINERY,40.734036,-112.14104,Nickel  And Nickel Compounds,105,731,,,,,,,,,,,,,,,,,,,,,,,Active,Copper
UTAH,Salt Lake,Rio Tinto Kennecott Copper LLC,Copperton Concentrator ,,SALT LAKE,KENNECOTT UTAH COPPER SMELTER & REFINERY,40.734036,-112.14104,UT,SALT LAKE,,KENNECOTT UTAH COPPER SMELTER & REFINERY,40.734036,-112.14104,Zinc compounds,463,707,,,,,,,,,,,,,,,,,,,,,,,Active,Copper
UTAH,Salt Lake,Rio Tinto Kennecott Copper LLC,Copperton Concentrator ,,SALT LAKE,KENNECOTT UTAH COPPER SMELTER & REFINERY,40.734036,-112.14104,UT,SALT LAKE,,KENNECOTT UTAH COPPER SMELTER & REFINERY,40.734036,-112.14104,Copper  And Copper Compounds,44389,45306,,,,,,,,,,,,,,,,,,,,,,,Active,Copper
UTAH,Salt Lake,Rio Tinto Kennecott Copper LLC,Copperton Concentrator ,,SALT LAKE,KENNECOTT UTAH COPPER SMELTER & REFINERY,40.734036,-112.14104,UT,SALT LAKE,,KENNECOTT UTAH COPPER SMELTER & REFINERY,40.734036,-112.14104,Mercury  And Mercury Compounds,,6,,,,,,,,,,,,,,,,,,,,,,,Active,Copper
UTAH,Salt Lake,Rio Tinto Kennecott Copper LLC,Copperton Concentrator ,,SALT LAKE,KENNECOTT UTAH COPPER SMELTER & REFINERY,40.734036,-112.14104,UT,SALT LAKE,,KENNECOTT UTAH COPPER SMELTER & REFINERY,40.734036,-112.14104,"Sulfuric acid (acid aerosols including mists, vapors, gas, fog, and other airborne forms of any particle size)",505,24749,,,,,,,,,,,,,,,,,,,,,,,Active,Copper
UTAH,Salt Lake,Rio Tinto Kennecott Copper LLC,Copperton Concentrator ,,SALT LAKE,KENNECOTT UTAH COPPER SMELTER & REFINERY,40.734036,-112.14104,UT,SALT LAKE,,KENNECOTT UTAH COPPER SMELTER & REFINERY,40.734036,-112.14104,Manganese  And Manganese Compounds,3,180,,,,,,,,,,,,,,,,,,,,,,,Active,Copper
UTAH,Salt Lake,Rio Tinto Kennecott Copper LLC,Copperton Concentrator ,,SALT LAKE,KENNECOTT UTAH COPPER SMELTER & REFINERY,40.734036,-112.14104,UT,SALT LAKE,,KENNECOTT UTAH COPPER SMELTER & REFINERY,40.734036,-112.14104,Thallium  And Thallium Compounds,2,26,,,,,,,,,,,,,,,,,,,,,,,Active,Copper
UTAH,Salt Lake,Rio Tinto Kennecott Copper LLC,Copperton Concentrator ,,SALT LAKE,KENNECOTT UTAH COPPER SMELTER & REFINERY,40.734036,-112.14104,UT,SALT LAKE,,KENNECOTT UTAH COPPER SMELTER & REFINERY,40.734036,-112.14104,"Hydrochloric acid (acid aerosols including mists, vapors, gas, fog, and other airborne forms of any particle size)",500,45,,,,,,,,,,,,,,,,,,,,,,,Active,Copper
UTAH,Salt Lake,Rio Tinto Kennecott Copper LLC,Copperton Concentrator ,,SALT LAKE,KENNECOTT UTAH COPPER SMELTER & REFINERY,40.734036,-112.14104,UT,SALT LAKE,,KENNECOTT UTAH COPPER SMELTER & REFINERY,40.734036,-112.14104,Nitrate compounds (water dissociable; reportable only when in aqueous solution),,,,,,,,,,,,,,,,,,,,,,,,,Active,Copper
ARIZONA,Pinal,Cyprus Tohono Corp,Cyprus Tohono Corporation,Arizona,Pinal,Tohono,32.5168,-111.90071,,,,,,,,,,,,,,,,,,,,,,,,,,,,,,,EPA,Inactive,Copper
MICHIGAN,Marquette,Eagle Mine LLC,Eagle Mine,Michigan,Marquette,Eagle Project,46.746,-87.856,MI,MARQUETTE,,EAGLE MINE,46.747492,-87.879746,Copper  And Copper Compounds,1.7,4.6,1.822106214,Michigan,MI - Marquette,EAGLE MINE LLC,46.7474,-87.8851,Methane,59.15,GHG,2.229107143,Nickel Concentrate,Copper Concentrate,139.733,41.889,136.768,49.834,121.646,50.808,97.193,40.288,kt,Annual Mining and Reclamation Report Humboldt Mill,Active,Nickel
MICHIGAN,Marquette,Eagle Mine LLC,Eagle Mine,Michigan,Marquette,Eagle Project,46.746,-87.856,MI,MARQUETTE,,EAGLE MINE,46.747492,-87.879746,Nitrate compounds (water dissociable; reportable only when in aqueous solution),,,1.822106214,Michigan,MI - Marquette,EAGLE MINE LLC,46.7474,-87.8851,PM10 Primary (Filt + Cond),7.374294862,CAP,2.229107143,Nickel Concentrate,Copper Concentrate,139.733,41.889,136.768,49.834,121.646,50.808,97.193,40.288,kt,Annual Mining and Reclamation Report Humboldt Mill,Active,Nickel
MICHIGAN,Marquette,Eagle Mine LLC,Eagle Mine,Michigan,Marquette,Eagle Project,46.746,-87.856,MI,MARQUETTE,,EAGLE MINE,46.747492,-87.879746,Lead  And Lead Compounds,0.39,26,1.822106214,Michigan,MI - Marquette,EAGLE MINE LLC,46.7474,-87.8851,Nitrogen Oxides,2.8885,CAP,2.229107143,Nickel Concentrate,Copper Concentrate,139.733,41.889,136.768,49.834,121.646,50.808,97.193,40.288,kt,Annual Mining and Reclamation Report Humboldt Mill,Active,Nickel
MICHIGAN,Marquette,Eagle Mine LLC,Eagle Mine,Michigan,Marquette,Eagle Project,46.746,-87.856,MI,MARQUETTE,,EAGLE MINE,46.747492,-87.879746,Nickel  And Nickel Compounds,3.2,6.8,1.822106214,Michigan,MI - Marquette,EAGLE MINE LLC,46.7474,-87.8851,PM2.5 Primary (Filt + Cond),2.09045858,CAP,2.229107143,Nickel Concentrate,Copper Concentrate,139.733,41.889,136.768,49.834,121.646,50.808,97.193,40.288,kt,Annual Mining and Reclamation Report Humboldt Mill,Active,Nickel
MICHIGAN,Marquette,Eagle Mine LLC,Eagle Mine,Michigan,Marquette,Eagle Project,46.746,-87.856,MI,MARQUETTE,,EAGLE MINE,46.747492,-87.879746,Cobalt  And Cobalt Compounds,0.44,0.53,1.822106214,Michigan,MI - Marquette,EAGLE MINE LLC,46.7474,-87.8851,Carbon Monoxide,1.2685,CAP,2.229107143,Nickel Concentrate,Copper Concentrate,139.733,41.889,136.768,49.834,121.646,50.808,97.193,40.288,kt,Annual Mining and Reclamation Report Humboldt Mill,Active,Nickel
MICHIGAN,Marquette,Eagle Mine LLC,Eagle Mine,Michigan,Marquette,Eagle Project,46.746,-87.856,MI,MARQUETTE,,EAGLE MINE,46.747492,-87.879746,Mercury  And Mercury Compounds,0.0014,0.0013,1.822106214,Michigan,MI - Marquette,EAGLE MINE LLC,46.7474,-87.8851,Volatile Organic Compounds,0.1789,CAP,2.229107143,Nickel Concentrate,Copper Concentrate,139.733,41.889,136.768,49.834,121.646,50.808,97.193,40.288,kt,Annual Mining and Reclamation Report Humboldt Mill,Active,Nickel
MICHIGAN,Marquette,Eagle Mine LLC,Eagle Mine,Michigan,Marquette,Eagle Project,46.746,-87.856,,,,,,,,,,,Michigan,MI - Marquette,EAGLE MINE LLC,46.7474,-87.8851,Benzene,0.03999,HAP,2.229107143,Nickel Concentrate,Copper Concentrate,139.733,41.889,136.768,49.834,121.646,50.808,97.193,40.288,kt,Annual Mining and Reclamation Report Humboldt Mill,Active,Nickel
MICHIGAN,Marquette,Eagle Mine LLC,Eagle Mine,Michigan,Marquette,Eagle Project,46.746,-87.856,,,,,,,,,,,Michigan,MI - Marquette,EAGLE MINE LLC,46.7474,-87.8851,Formaldehyde,0.020555,HAP,2.229107143,Nickel Concentrate,Copper Concentrate,139.733,41.889,136.768,49.834,121.646,50.808,97.193,40.288,kt,Annual Mining and Reclamation Report Humboldt Mill,Active,Nickel
MICHIGAN,Marquette,Eagle Mine LLC,Eagle Mine,Michigan,Marquette,Eagle Project,46.746,-87.856,,,,,,,,,,,Michigan,MI - Marquette,EAGLE MINE LLC,46.7474,-87.8851,Sulfur Dioxide,0.01425,CAP,2.229107143,Nickel Concentrate,Copper Concentrate,139.733,41.889,136.768,49.834,121.646,50.808,97.193,40.288,kt,Annual Mining and Reclamation Report Humboldt Mill,Active,Nickel
MICHIGAN,Marquette,Eagle Mine LLC,Eagle Mine,Michigan,Marquette,Eagle Project,46.746,-87.856,,,,,,,,,,,Michigan,MI - Marquette,EAGLE MINE LLC,46.7474,-87.8851,Toluene,0.011965,HAP,2.229107143,Nickel Concentrate,Copper Concentrate,139.733,41.889,136.768,49.834,121.646,50.808,97.193,40.288,kt,Annual Mining and Reclamation Report Humboldt Mill,Active,Nickel
MICHIGAN,Marquette,Eagle Mine LLC,Eagle Mine,Michigan,Marquette,Eagle Project,46.746,-87.856,,,,,,,,,,,Michigan,MI - Marquette,EAGLE MINE LLC,46.7474,-87.8851,Naphthalene,0.003999,HAP,2.229107143,Nickel Concentrate,Copper Concentrate,139.733,41.889,136.768,49.834,121.646,50.808,97.193,40.288,kt,Annual Mining and Reclamation Report Humboldt Mill,Active,Nickel
MICHIGAN,Marquette,Eagle Mine LLC,Eagle Mine,Michigan,Marquette,Eagle Project,46.746,-87.856,,,,,,,,,,,Michigan,MI - Marquette,EAGLE MINE LLC,46.7474,-87.8851,Lead Compounds,0.00229545,CAP/HAP,2.229107143,Nickel Concentrate,Copper Concentrate,139.733,41.889,136.768,49.834,121.646,50.808,97.193,40.288,kt,Annual Mining and Reclamation Report Humboldt Mill,Active,Nickel
MICHIGAN,Marquette,Eagle Mine LLC,Eagle Mine,Michigan,Marquette,Eagle Project,46.746,-87.856,,,,,,,,,,,Michigan,MI - Marquette,EAGLE MINE LLC,46.7474,-87.8851,Xylenes (Mixed Isomers),0.0021205,HAP,2.229107143,Nickel Concentrate,Copper Concentrate,139.733,41.889,136.768,49.834,121.646,50.808,97.193,40.288,kt,Annual Mining and Reclamation Report Humboldt Mill,Active,Nickel
MICHIGAN,Marquette,Eagle Mine LLC,Eagle Mine,Michigan,Marquette,Eagle Project,46.746,-87.856,,,,,,,,,,,Michigan,MI - Marquette,EAGLE MINE LLC,46.7474,-87.8851,Ethylbenzene,0.0009515,HAP,2.229107143,Nickel Concentrate,Copper Concentrate,139.733,41.889,136.768,49.834,121.646,50.808,97.193,40.288,kt,Annual Mining and Reclamation Report Humboldt Mill,Active,Nickel
MICHIGAN,Marquette,Eagle Mine LLC,Eagle Mine,Michigan,Marquette,Eagle Project,46.746,-87.856,,,,,,,,,,,Michigan,MI - Marquette,EAGLE MINE LLC,46.7474,-87.8851,Polycyclic Organic Matter,6.30E-05,HAP,2.229107143,Nickel Concentrate,Copper Concentrate,139.733,41.889,136.768,49.834,121.646,50.808,97.193,40.288,kt,Annual Mining and Reclamation Report Humboldt Mill,Active,Nickel
MICHIGAN,Marquette,Eagle Mine LLC,Eagle Mine,Michigan,Marquette,Eagle Project,46.746,-87.856,,,,,,,,,,,Michigan,MI - Marquette,EAGLE MINE LLC,46.7474,-87.8851,Acetaldehyde,0.000033264,HAP,2.229107143,Nickel Concentrate,Copper Concentrate,139.733,41.889,136.768,49.834,121.646,50.808,97.193,40.288,kt,Annual Mining and Reclamation Report Humboldt Mill,Active,Nickel
MICHIGAN,Marquette,Eagle Mine LLC,Eagle Mine,Michigan,Marquette,Eagle Project,46.746,-87.856,,,,,,,,,,,Michigan,MI - Marquette,EAGLE MINE LLC,46.7474,-87.8851,Phosphorus,0.00001029,HAP,2.229107143,Nickel Concentrate,Copper Concentrate,139.733,41.889,136.768,49.834,121.646,50.808,97.193,40.288,kt,Annual Mining and Reclamation Report Humboldt Mill,Active,Nickel
MICHIGAN,Marquette,Eagle Mine LLC,Eagle Mine,Michigan,Marquette,Eagle Project,46.746,-87.856,,,,,,,,,,,Michigan,MI - Marquette,EAGLE MINE LLC,46.7474,-87.8851,Mercury Compounds,1.24E-06,HAP,2.229107143,Nickel Concentrate,Copper Concentrate,139.733,41.889,136.768,49.834,121.646,50.808,97.193,40.288,kt,Annual Mining and Reclamation Report Humboldt Mill,Active,Nickel
MICHIGAN,Marquette,Eagle Mine LLC,Eagle Mine,Michigan,Marquette,Eagle Project,46.746,-87.856,,,,,,,,,,,Michigan,MI - Marquette,EAGLE MINE LLC,46.7474,-87.8851,Manganese Compounds,0.000001124,HAP,2.229107143,Nickel Concentrate,Copper Concentrate,139.733,41.889,136.768,49.834,121.646,50.808,97.193,40.288,kt,Annual Mining and Reclamation Report Humboldt Mill,Active,Nickel
MICHIGAN,Marquette,Eagle Mine LLC,Eagle Mine,Michigan,Marquette,Eagle Project,46.746,-87.856,,,,,,,,,,,Michigan,MI - Marquette,EAGLE MINE LLC,46.7474,-87.8851,Nickel Compounds,4.02E-07,HAP,2.229107143,Nickel Concentrate,Copper Concentrate,139.733,41.889,136.768,49.834,121.646,50.808,97.193,40.288,kt,Annual Mining and Reclamation Report Humboldt Mill,Active,Nickel
MICHIGAN,Marquette,Eagle Mine LLC,Eagle Mine,Michigan,Marquette,Eagle Project,46.746,-87.856,,,,,,,,,,,Michigan,MI - Marquette,EAGLE MINE LLC,46.7474,-87.8851,Arsenic Compounds,4.07E-08,HAP,2.229107143,Nickel Concentrate,Copper Concentrate,139.733,41.889,136.768,49.834,121.646,50.808,97.193,40.288,kt,Annual Mining and Reclamation Report Humboldt Mill,Active,Nickel
MICHIGAN,Marquette,Eagle Mine LLC,Eagle Mine,Michigan,Marquette,Eagle Project,46.746,-87.856,,,,,,,,,,,Michigan,MI - Marquette,EAGLE MINE LLC,46.7474,-87.8851,Beryllium Compounds,4.67E-09,HAP,2.229107143,Nickel Concentrate,Copper Concentrate,139.733,41.889,136.768,49.834,121.646,50.808,97.193,40.288,kt,Annual Mining and Reclamation Report Humboldt Mill,Active,Nickel
MICHIGAN,Marquette,Eagle Mine LLC,Eagle Mine,Michigan,Marquette,Eagle Project,46.746,-87.856,,,,,,,,,,,Michigan,MI - Marquette,EAGLE MINE LLC,46.7474,-87.8851,Cadmium Compounds,4.67E-09,HAP,2.229107143,Nickel Concentrate,Copper Concentrate,139.733,41.889,136.768,49.834,121.646,50.808,97.193,40.288,kt,Annual Mining and Reclamation Report Humboldt Mill,Active,Nickel
MICHIGAN,Marquette,Eagle Mine LLC,Eagle Mine,Michigan,Marquette,Eagle Project,46.746,-87.856,,,,,,,,,,,Michigan,MI - Marquette,EAGLE MINE LLC,46.7474,-87.8851,Chromium Compounds,1.16E-10,HAP,2.229107143,Nickel Concentrate,Copper Concentrate,139.733,41.889,136.768,49.834,121.646,50.808,97.193,40.288,kt,Annual Mining and Reclamation Report Humboldt Mill,Active,Nickel
MICHIGAN,Marquette,Eagle Mine LLC,Eagle Mine,Michigan,Marquette,Eagle Project,46.746,-87.856,,,,,,,,,,,Michigan,MI - Marquette,EAGLE MINE LLC,46.7474,-87.8851,Cobalt Compounds,6.21E-11,HAP,2.229107143,Nickel Concentrate,Copper Concentrate,139.733,41.889,136.768,49.834,121.646,50.808,97.193,40.288,kt,Annual Mining and Reclamation Report Humboldt Mill,Active,Nickel
ARIZONA,Gila,Fisher Sand & Gravel Company,Fisher Industries Plant 37,,,,33.25475,-111.41341,,,,,,,,,,,,,,,,,,,,,,,,,,,,,,,,Active,Copper
ARIZONA,Gila,Freeport McMoRan Miami Inc,Freeport McMoRan Miami Inc ,Arizona,Gila,Miami East,33.40698,-110.87569,AZ,GILA,FREEPORT-MCMORAN INC,FREEPORT-MCMORAN MIAMI INC,33.412655,-110.856538,"Sulfuric acid (acid aerosols including mists, vapors, gas, fog, and other airborne forms of any particle size)",13000,120000,1.889418428,,,,,,,,,,Copper production,,,,5.44310844,,7.71107029,,6.80388555,,kt,Freeport-McMoran Annual Report 2022,Active,Copper
ARIZONA,Gila,Freeport McMoRan Miami Inc,Freeport McMoRan Miami Inc ,Arizona,Gila,Miami East,33.40698,-110.87569,AZ,GILA,FREEPORT-MCMORAN INC,FREEPORT-MCMORAN MIAMI INC,33.412655,-110.856538,Chromium  and Chromium Compounds(except for chromite ore mined in the Transvaal Region),250,250,1.889418428,,,,,,,,,,Copper production,,,,5.44310844,,7.71107029,,6.80388555,,kt,Freeport-McMoran Annual Report 2022,Active,Copper
ARIZONA,Gila,Freeport McMoRan Miami Inc,Freeport McMoRan Miami Inc ,Arizona,Gila,Miami East,33.40698,-110.87569,AZ,GILA,FREEPORT-MCMORAN INC,FREEPORT-MCMORAN MIAMI INC,33.412655,-110.856538,Mercury compounds,4.8,246,1.889418428,,,,,,,,,,Copper production,,,,5.44310844,,7.71107029,,6.80388555,,kt,Freeport-McMoran Annual Report 2022,Active,Copper
ARIZONA,Gila,Freeport McMoRan Miami Inc,Freeport McMoRan Miami Inc ,Arizona,Gila,Miami East,33.40698,-110.87569,AZ,GILA,FREEPORT-MCMORAN INC,FREEPORT-MCMORAN MIAMI INC,33.412655,-110.856538,Nickel  And Nickel Compounds,250,250,1.889418428,,,,,,,,,,Copper production,,,,5.44310844,,7.71107029,,6.80388555,,kt,Freeport-McMoran Annual Report 2022,Active,Copper
ARIZONA,Gila,Freeport McMoRan Miami Inc,Freeport McMoRan Miami Inc ,Arizona,Gila,Miami East,33.40698,-110.87569,AZ,GILA,FREEPORT-MCMORAN INC,FREEPORT-MCMORAN MIAMI INC,33.412655,-110.856538,Dioxin and dioxin-like compounds,7.05E-06,0.001733934,1.889418428,,,,,,,,,,Copper production,,,,5.44310844,,7.71107029,,6.80388555,,kt,Freeport-McMoran Annual Report 2022,Active,Copper
ARIZONA,Gila,Freeport McMoRan Miami Inc,Freeport McMoRan Miami Inc ,Arizona,Gila,Miami East,33.40698,-110.87569,AZ,GILA,FREEPORT-MCMORAN INC,FREEPORT-MCMORAN MIAMI INC,33.412655,-110.856538,Zinc compounds,12000,6700,1.889418428,,,,,,,,,,Copper production,,,,5.44310844,,7.71107029,,6.80388555,,kt,Freeport-McMoran Annual Report 2022,Active,Copper
ARIZONA,Gila,Freeport McMoRan Miami Inc,Freeport McMoRan Miami Inc ,Arizona,Gila,Miami East,33.40698,-110.87569,AZ,GILA,FREEPORT-MCMORAN INC,FREEPORT-MCMORAN MIAMI INC,33.412655,-110.856538,Cobalt compounds,250,250,1.889418428,,,,,,,,,,Copper production,,,,5.44310844,,7.71107029,,6.80388555,,kt,Freeport-McMoran Annual Report 2022,Active,Copper
ARIZONA,Gila,Freeport McMoRan Miami Inc,Freeport McMoRan Miami Inc ,Arizona,Gila,Miami East,33.40698,-110.87569,AZ,GILA,FREEPORT-MCMORAN INC,FREEPORT-MCMORAN MIAMI INC,33.412655,-110.856538,Silver And Silver Compounds,250,250,1.889418428,,,,,,,,,,Copper production,,,,5.44310844,,7.71107029,,6.80388555,,kt,Freeport-McMoran Annual Report 2022,Active,Copper
ARIZONA,Gila,Freeport McMoRan Miami Inc,Freeport McMoRan Miami Inc ,Arizona,Gila,Miami East,33.40698,-110.87569,AZ,GILA,FREEPORT-MCMORAN INC,FREEPORT-MCMORAN MIAMI INC,33.412655,-110.856538,Copper  And Copper Compounds,26000,14000,1.889418428,,,,,,,,,,Copper production,,,,5.44310844,,7.71107029,,6.80388555,,kt,Freeport-McMoran Annual Report 2022,Active,Copper
ARIZONA,Gila,Freeport McMoRan Miami Inc,Freeport McMoRan Miami Inc ,Arizona,Gila,Miami East,33.40698,-110.87569,AZ,GILA,FREEPORT-MCMORAN INC,FREEPORT-MCMORAN MIAMI INC,33.412655,-110.856538,Selenium compounds,750,750,1.889418428,,,,,,,,,,Copper production,,,,5.44310844,,7.71107029,,6.80388555,,kt,Freeport-McMoran Annual Report 2022,Active,Copper
ARIZONA,Gila,Freeport McMoRan Miami Inc,Freeport McMoRan Miami Inc ,Arizona,Gila,Miami East,33.40698,-110.87569,AZ,GILA,FREEPORT-MCMORAN INC,FREEPORT-MCMORAN MIAMI INC,33.412655,-110.856538,Manganese  And Manganese Compounds,250,1100,1.889418428,,,,,,,,,,Copper production,,,,5.44310844,,7.71107029,,6.80388555,,kt,Freeport-McMoran Annual Report 2022,Active,Copper
ARIZONA,Gila,Freeport McMoRan Miami Inc,Freeport McMoRan Miami Inc ,Arizona,Gila,Miami East,33.40698,-110.87569,AZ,GILA,FREEPORT-MCMORAN INC,FREEPORT-MCMORAN MIAMI INC,33.412655,-110.856538,Antimony compounds,250,250,1.889418428,,,,,,,,,,Copper production,,,,5.44310844,,7.71107029,,6.80388555,,kt,Freeport-McMoran Annual Report 2022,Active,Copper
ARIZONA,Gila,Freeport McMoRan Miami Inc,Freeport McMoRan Miami Inc ,Arizona,Gila,Miami East,33.40698,-110.87569,AZ,GILA,FREEPORT-MCMORAN INC,FREEPORT-MCMORAN MIAMI INC,33.412655,-110.856538,Arsenic  And Arsenic Compounds,4400,1200,1.889418428,,,,,,,,,,Copper production,,,,5.44310844,,7.71107029,,6.80388555,,kt,Freeport-McMoran Annual Report 2022,Active,Copper
ARIZONA,Gila,Freeport McMoRan Miami Inc,Freeport McMoRan Miami Inc ,Arizona,Gila,Miami East,33.40698,-110.87569,AZ,GILA,FREEPORT-MCMORAN INC,FREEPORT-MCMORAN MIAMI INC,33.412655,-110.856538,Lead  And Lead Compounds,9810,10800,1.889418428,,,,,,,,,,Copper production,,,,5.44310844,,7.71107029,,6.80388555,,kt,Freeport-McMoran Annual Report 2022,Active,Copper
ARIZONA,Gila,Freeport McMoRan Miami Inc,Freeport McMoRan Miami Inc ,Arizona,Gila,Miami East,33.40698,-110.87569,AZ,GILA,FREEPORT-MCMORAN INC,FREEPORT-MCMORAN MIAMI INC,33.412655,-110.856538,Cadmium compounds,250,250,1.889418428,,,,,,,,,,Copper production,,,,5.44310844,,7.71107029,,6.80388555,,kt,Freeport-McMoran Annual Report 2022,Active,Copper
ARIZONA,Gila,Freeport McMoRan Miami Inc,Freeport McMoRan Miami Inc ,Arizona,Gila,Miami East,33.40698,-110.87569,AZ,GILA,FREEPORT-MCMORAN INC,FREEPORT-MCMORAN MIAMI INC,33.412655,-110.856538,Barium compounds (except for barium sulfate (CAS No. 7727-43-7)),2700,250,1.889418428,,,,,,,,,,Copper production,,,,5.44310844,,7.71107029,,6.80388555,,kt,Freeport-McMoran Annual Report 2022,Active,Copper
ARIZONA,Yavapai,Freeport-McMoRan Bagdad Inc,Freeport-McMoRan Bagdad Inc ,Arizona,Yavapai,Bagdad,34.58474,-113.20857,,,,,,,,,,,Arizona,AZ - Yavapai,"FREEPORT-MCMORAN BAGDAD, INC.",34.583004,-113.21388,Benzene,1.125,HAP,0.523863168,Copper production,Molybdenum production,,,83.46099608,4.08233133,97.97595192,4.98951607,98.88313666,5.89670081,kt,Freeport-McMoran Annual Report 2022,Active,Copper
ARIZONA,Yavapai,Freeport-McMoRan Bagdad Inc,Freeport-McMoRan Bagdad Inc ,Arizona,Yavapai,Bagdad,34.58474,-113.20857,,,,,,,,,,,Arizona,AZ - Yavapai,"FREEPORT-MCMORAN BAGDAD, INC.",34.583004,-113.21388,Ammonia,0.975,CAP,0.523863168,Copper production,Molybdenum production,,,83.46099608,4.08233133,97.97595192,4.98951607,98.88313666,5.89670081,kt,Freeport-McMoran Annual Report 2022,Active,Copper
ARIZONA,Yavapai,Freeport-McMoRan Bagdad Inc,Freeport-McMoRan Bagdad Inc ,Arizona,Yavapai,Bagdad,34.58474,-113.20857,,,,,,,,,,,Arizona,AZ - Yavapai,"FREEPORT-MCMORAN BAGDAD, INC.",34.583004,-113.21388,Toluene,0.775,HAP,0.523863168,Copper production,Molybdenum production,,,83.46099608,4.08233133,97.97595192,4.98951607,98.88313666,5.89670081,kt,Freeport-McMoran Annual Report 2022,Active,Copper
ARIZONA,Yavapai,Freeport-McMoRan Bagdad Inc,Freeport-McMoRan Bagdad Inc ,Arizona,Yavapai,Bagdad,34.58474,-113.20857,,,,,,,,,,,Arizona,AZ - Yavapai,"FREEPORT-MCMORAN BAGDAD, INC.",34.583004,-113.21388,Xylenes (Mixed Isomers),0.5,HAP,0.523863168,Copper production,Molybdenum production,,,83.46099608,4.08233133,97.97595192,4.98951607,98.88313666,5.89670081,kt,Freeport-McMoran Annual Report 2022,Active,Copper
ARIZONA,Yavapai,Freeport-McMoRan Bagdad Inc,Freeport-McMoRan Bagdad Inc ,Arizona,Yavapai,Bagdad,34.58474,-113.20857,,,,,,,,,,,Arizona,AZ - Yavapai,"FREEPORT-MCMORAN BAGDAD, INC.",34.583004,-113.21388,Cumene,0.125,HAP,0.523863168,Copper production,Molybdenum production,,,83.46099608,4.08233133,97.97595192,4.98951607,98.88313666,5.89670081,kt,Freeport-McMoran Annual Report 2022,Active,Copper
ARIZONA,Yavapai,Freeport-McMoRan Bagdad Inc,Freeport-McMoRan Bagdad Inc ,Arizona,Yavapai,Bagdad,34.58474,-113.20857,,,,,,,,,,,Arizona,AZ - Yavapai,"FREEPORT-MCMORAN BAGDAD, INC.",34.583004,-113.21388,Lead Compounds,0.0895,CAP/HAP,0.523863168,Copper production,Molybdenum production,,,83.46099608,4.08233133,97.97595192,4.98951607,98.88313666,5.89670081,kt,Freeport-McMoran Annual Report 2022,Active,Copper
ARIZONA,Yavapai,Freeport-McMoRan Bagdad Inc,Freeport-McMoRan Bagdad Inc ,Arizona,Yavapai,Bagdad,34.58474,-113.20857,,,,,,,,,,,Arizona,AZ - Yavapai,"FREEPORT-MCMORAN BAGDAD, INC.",34.583004,-113.21388,Manganese Compounds,0.0025,HAP,0.523863168,Copper production,Molybdenum production,,,83.46099608,4.08233133,97.97595192,4.98951607,98.88313666,5.89670081,kt,Freeport-McMoran Annual Report 2022,Active,Copper
ARIZONA,Yavapai,Freeport-McMoRan Bagdad Inc,Freeport-McMoRan Bagdad Inc ,Arizona,Yavapai,Bagdad,34.58474,-113.20857,,,,,,,,,,,Arizona,AZ - Yavapai,"FREEPORT-MCMORAN BAGDAD, INC.",34.583004,-113.21388,Mercury Compounds,0.00135,HAP,0.523863168,Copper production,Molybdenum production,,,83.46099608,4.08233133,97.97595192,4.98951607,98.88313666,5.89670081,kt,Freeport-McMoran Annual Report 2022,Active,Copper
ARIZONA,Greenlee,Freeport-McMoRan Morenci Inc.,Freeport-McMoRan Morenci Inc.,Arizona,Greenlee,Morenci Mine,33.089,-109.35375,AZ,GREENLEE,FREEPORT-MCMORAN INC,FREEPORT-MCMORAN MORENCI INC,33.065,-109.34222,Xylene (mixed isomers),2600,250,2.871215884,Arizona,AZ - Greenlee,FREEPORT-MCMORAN MORENCI INC.,33.065,-109.34222,Carbon Dioxide,38809.74237,GHG,2.871215884,Copper production,Molybdenum production,,,408.233133,2.26796185,453.59237,2.72155422,453.59237,2.26796185,kt,Freeport-McMoran Annual Report 2022,Active,Copper
ARIZONA,Greenlee,Freeport-McMoRan Morenci Inc.,Freeport-McMoRan Morenci Inc.,Arizona,Greenlee,Morenci Mine,33.089,-109.35375,AZ,GREENLEE,FREEPORT-MCMORAN INC,FREEPORT-MCMORAN MORENCI INC,33.065,-109.34222,Nickel,,,2.871215884,Arizona,AZ - Greenlee,FREEPORT-MCMORAN MORENCI INC.,33.065,-109.34222,PM10 Primary (Filt + Cond),3207.020731,CAP,2.871215884,Copper production,Molybdenum production,,,408.233133,2.26796185,453.59237,2.72155422,453.59237,2.26796185,kt,Freeport-McMoran Annual Report 2022,Active,Copper
ARIZONA,Greenlee,Freeport-McMoRan Morenci Inc.,Freeport-McMoRan Morenci Inc.,Arizona,Greenlee,Morenci Mine,33.089,-109.35375,AZ,GREENLEE,FREEPORT-MCMORAN INC,FREEPORT-MCMORAN MORENCI INC,33.065,-109.34222,Lead  And Lead Compounds,249,0.6,2.871215884,Arizona,AZ - Greenlee,FREEPORT-MCMORAN MORENCI INC.,33.065,-109.34222,Carbon Monoxide,1347.372802,CAP,2.871215884,Copper production,Molybdenum production,,,408.233133,2.26796185,453.59237,2.72155422,453.59237,2.26796185,kt,Freeport-McMoran Annual Report 2022,Active,Copper
ARIZONA,Greenlee,Freeport-McMoRan Morenci Inc.,Freeport-McMoRan Morenci Inc.,Arizona,Greenlee,Morenci Mine,33.089,-109.35375,AZ,GREENLEE,FREEPORT-MCMORAN INC,FREEPORT-MCMORAN MORENCI INC,33.065,-109.34222,"Sulfuric acid (acid aerosols including mists, vapors, gas, fog, and other airborne forms of any particle size)",84000,,2.871215884,Arizona,AZ - Greenlee,FREEPORT-MCMORAN MORENCI INC.,33.065,-109.34222,PM2.5 Primary (Filt + Cond),427.6593086,CAP,2.871215884,Copper production,Molybdenum production,,,408.233133,2.26796185,453.59237,2.72155422,453.59237,2.26796185,kt,Freeport-McMoran Annual Report 2022,Active,Copper
ARIZONA,Greenlee,Freeport-McMoRan Morenci Inc.,Freeport-McMoRan Morenci Inc.,Arizona,Greenlee,Morenci Mine,33.089,-109.35375,AZ,GREENLEE,FREEPORT-MCMORAN INC,FREEPORT-MCMORAN MORENCI INC,33.065,-109.34222,Ethylbenzene,250,5,2.871215884,Arizona,AZ - Greenlee,FREEPORT-MCMORAN MORENCI INC.,33.065,-109.34222,Nitrogen Oxides,125.8271276,CAP,2.871215884,Copper production,Molybdenum production,,,408.233133,2.26796185,453.59237,2.72155422,453.59237,2.26796185,kt,Freeport-McMoran Annual Report 2022,Active,Copper
ARIZONA,Greenlee,Freeport-McMoRan Morenci Inc.,Freeport-McMoRan Morenci Inc.,Arizona,Greenlee,Morenci Mine,33.089,-109.35375,AZ,GREENLEE,FREEPORT-MCMORAN INC,FREEPORT-MCMORAN MORENCI INC,33.065,-109.34222,Manganese  And Manganese Compounds,5,,2.871215884,Arizona,AZ - Greenlee,FREEPORT-MCMORAN MORENCI INC.,33.065,-109.34222,Volatile Organic Compounds,67.43591992,CAP,2.871215884,Copper production,Molybdenum production,,,408.233133,2.26796185,453.59237,2.72155422,453.59237,2.26796185,kt,Freeport-McMoran Annual Report 2022,Active,Copper
ARIZONA,Greenlee,Freeport-McMoRan Morenci Inc.,Freeport-McMoRan Morenci Inc.,Arizona,Greenlee,Morenci Mine,33.089,-109.35375,AZ,GREENLEE,FREEPORT-MCMORAN INC,FREEPORT-MCMORAN MORENCI INC,33.065,-109.34222,Arsenic,,,2.871215884,Arizona,AZ - Greenlee,FREEPORT-MCMORAN MORENCI INC.,33.065,-109.34222,Xylenes (Mixed Isomers),5.620744682,HAP,2.871215884,Copper production,Molybdenum production,,,408.233133,2.26796185,453.59237,2.72155422,453.59237,2.26796185,kt,Freeport-McMoran Annual Report 2022,Active,Copper
ARIZONA,Greenlee,Freeport-McMoRan Morenci Inc.,Freeport-McMoRan Morenci Inc.,Arizona,Greenlee,Morenci Mine,33.089,-109.35375,AZ,GREENLEE,FREEPORT-MCMORAN INC,FREEPORT-MCMORAN MORENCI INC,33.065,-109.34222,Toluene,5100,250,2.871215884,Arizona,AZ - Greenlee,FREEPORT-MCMORAN MORENCI INC.,33.065,-109.34222,Ethylbenzene,4.30718429,HAP,2.871215884,Copper production,Molybdenum production,,,408.233133,2.26796185,453.59237,2.72155422,453.59237,2.26796185,kt,Freeport-McMoran Annual Report 2022,Active,Copper
ARIZONA,Greenlee,Freeport-McMoRan Morenci Inc.,Freeport-McMoRan Morenci Inc.,Arizona,Greenlee,Morenci Mine,33.089,-109.35375,AZ,GREENLEE,FREEPORT-MCMORAN INC,FREEPORT-MCMORAN MORENCI INC,33.065,-109.34222,Chromium,5,,2.871215884,Arizona,AZ - Greenlee,FREEPORT-MCMORAN MORENCI INC.,33.065,-109.34222,Ammonia,3.265454263,CAP,2.871215884,Copper production,Molybdenum production,,,408.233133,2.26796185,453.59237,2.72155422,453.59237,2.26796185,kt,Freeport-McMoran Annual Report 2022,Active,Copper
ARIZONA,Greenlee,Freeport-McMoRan Morenci Inc.,Freeport-McMoRan Morenci Inc.,Arizona,Greenlee,Morenci Mine,33.089,-109.35375,AZ,GREENLEE,FREEPORT-MCMORAN INC,FREEPORT-MCMORAN MORENCI INC,33.065,-109.34222,Cumene,750,5,2.871215884,Arizona,AZ - Greenlee,FREEPORT-MCMORAN MORENCI INC.,33.065,-109.34222,Toluene,1.288745465,HAP,2.871215884,Copper production,Molybdenum production,,,408.233133,2.26796185,453.59237,2.72155422,453.59237,2.26796185,kt,Freeport-McMoran Annual Report 2022,Active,Copper
ARIZONA,Greenlee,Freeport-McMoRan Morenci Inc.,Freeport-McMoRan Morenci Inc.,Arizona,Greenlee,Morenci Mine,33.089,-109.35375,AZ,GREENLEE,FREEPORT-MCMORAN INC,FREEPORT-MCMORAN MORENCI INC,33.065,-109.34222,Nitrate compounds (water dissociable; reportable only when in aqueous solution),,,2.871215884,Arizona,AZ - Greenlee,FREEPORT-MCMORAN MORENCI INC.,33.065,-109.34222,Sulfur Dioxide,1.017451185,CAP,2.871215884,Copper production,Molybdenum production,,,408.233133,2.26796185,453.59237,2.72155422,453.59237,2.26796185,kt,Freeport-McMoran Annual Report 2022,Active,Copper
ARIZONA,Greenlee,Freeport-McMoRan Morenci Inc.,Freeport-McMoRan Morenci Inc.,Arizona,Greenlee,Morenci Mine,33.089,-109.35375,AZ,GREENLEE,FREEPORT-MCMORAN INC,FREEPORT-MCMORAN MORENCI INC,33.065,-109.34222,"1,2,4-Trimethylbenzene",750,5,2.871215884,Arizona,AZ - Greenlee,FREEPORT-MCMORAN MORENCI INC.,33.065,-109.34222,Methane,0.72752559,GHG,2.871215884,Copper production,Molybdenum production,,,408.233133,2.26796185,453.59237,2.72155422,453.59237,2.26796185,kt,Freeport-McMoran Annual Report 2022,Active,Copper
ARIZONA,Greenlee,Freeport-McMoRan Morenci Inc.,Freeport-McMoRan Morenci Inc.,Arizona,Greenlee,Morenci Mine,33.089,-109.35375,AZ,GREENLEE,FREEPORT-MCMORAN INC,FREEPORT-MCMORAN MORENCI INC,33.065,-109.34222,Naphthalene,750,,2.871215884,Arizona,AZ - Greenlee,FREEPORT-MCMORAN MORENCI INC.,33.065,-109.34222,Hexane,0.55429064,HAP,2.871215884,Copper production,Molybdenum production,,,408.233133,2.26796185,453.59237,2.72155422,453.59237,2.26796185,kt,Freeport-McMoran Annual Report 2022,Active,Copper
ARIZONA,Greenlee,Freeport-McMoRan Morenci Inc.,Freeport-McMoRan Morenci Inc.,Arizona,Greenlee,Morenci Mine,33.089,-109.35375,AZ,GREENLEE,FREEPORT-MCMORAN INC,FREEPORT-MCMORAN MORENCI INC,33.065,-109.34222,Copper  And Copper Compounds,250,250,2.871215884,Arizona,AZ - Greenlee,FREEPORT-MCMORAN MORENCI INC.,33.065,-109.34222,Benzene,0.328864887,HAP,2.871215884,Copper production,Molybdenum production,,,408.233133,2.26796185,453.59237,2.72155422,453.59237,2.26796185,kt,Freeport-McMoran Annual Report 2022,Active,Copper
ARIZONA,Greenlee,Freeport-McMoRan Morenci Inc.,Freeport-McMoRan Morenci Inc.,Arizona,Greenlee,Morenci Mine,33.089,-109.35375,AZ,GREENLEE,FREEPORT-MCMORAN INC,FREEPORT-MCMORAN MORENCI INC,33.065,-109.34222,Sodium nitrite,,,2.871215884,Arizona,AZ - Greenlee,FREEPORT-MCMORAN MORENCI INC.,33.065,-109.34222,Lead Compounds,0.226579777,CAP/HAP,2.871215884,Copper production,Molybdenum production,,,408.233133,2.26796185,453.59237,2.72155422,453.59237,2.26796185,kt,Freeport-McMoran Annual Report 2022,Active,Copper
ARIZONA,Greenlee,Freeport-McMoRan Morenci Inc.,Freeport-McMoRan Morenci Inc.,Arizona,Greenlee,Morenci Mine,33.089,-109.35375,AZ,GREENLEE,FREEPORT-MCMORAN INC,FREEPORT-MCMORAN MORENCI INC,33.065,-109.34222,Cyclohexane,250,250,2.871215884,Arizona,AZ - Greenlee,FREEPORT-MCMORAN MORENCI INC.,33.065,-109.34222,Manganese Compounds,0.138020062,HAP,2.871215884,Copper production,Molybdenum production,,,408.233133,2.26796185,453.59237,2.72155422,453.59237,2.26796185,kt,Freeport-McMoran Annual Report 2022,Active,Copper
ARIZONA,Greenlee,Freeport-McMoRan Morenci Inc.,Freeport-McMoRan Morenci Inc.,Arizona,Greenlee,Morenci Mine,33.089,-109.35375,AZ,GREENLEE,FREEPORT-MCMORAN INC,FREEPORT-MCMORAN MORENCI INC,33.065,-109.34222,Polycyclic aromatic compounds,75.5,,2.871215884,Arizona,AZ - Greenlee,FREEPORT-MCMORAN MORENCI INC.,33.065,-109.34222,Formaldehyde,0.12740148,HAP,2.871215884,Copper production,Molybdenum production,,,408.233133,2.26796185,453.59237,2.72155422,453.59237,2.26796185,kt,Freeport-McMoran Annual Report 2022,Active,Copper
ARIZONA,Greenlee,Freeport-McMoRan Morenci Inc.,Freeport-McMoRan Morenci Inc.,Arizona,Greenlee,Morenci Mine,33.089,-109.35375,AZ,GREENLEE,FREEPORT-MCMORAN INC,FREEPORT-MCMORAN MORENCI INC,33.065,-109.34222,Zinc compounds,,250,2.871215884,Arizona,AZ - Greenlee,FREEPORT-MCMORAN MORENCI INC.,33.065,-109.34222,Nitrous Oxide,0.073854871,GHG,2.871215884,Copper production,Molybdenum production,,,408.233133,2.26796185,453.59237,2.72155422,453.59237,2.26796185,kt,Freeport-McMoran Annual Report 2022,Active,Copper
ARIZONA,Greenlee,Freeport-McMoRan Morenci Inc.,Freeport-McMoRan Morenci Inc.,Arizona,Greenlee,Morenci Mine,33.089,-109.35375,AZ,GREENLEE,FREEPORT-MCMORAN INC,FREEPORT-MCMORAN MORENCI INC,33.065,-109.34222,Benzene,7500,250,2.871215884,Arizona,AZ - Greenlee,FREEPORT-MCMORAN MORENCI INC.,33.065,-109.34222,Arsenic Compounds,0.045490223,HAP,2.871215884,Copper production,Molybdenum production,,,408.233133,2.26796185,453.59237,2.72155422,453.59237,2.26796185,kt,Freeport-McMoran Annual Report 2022,Active,Copper
ARIZONA,Greenlee,Freeport-McMoRan Morenci Inc.,Freeport-McMoRan Morenci Inc.,Arizona,Greenlee,Morenci Mine,33.089,-109.35375,AZ,GREENLEE,FREEPORT-MCMORAN INC,FREEPORT-MCMORAN MORENCI INC,33.065,-109.34222,n-Hexane,2100,250,2.871215884,Arizona,AZ - Greenlee,FREEPORT-MCMORAN MORENCI INC.,33.065,-109.34222,"2,2,4-Trimethylpentane",0.042954,HAP,2.871215884,Copper production,Molybdenum production,,,408.233133,2.26796185,453.59237,2.72155422,453.59237,2.26796185,kt,Freeport-McMoran Annual Report 2022,Active,Copper
ARIZONA,Greenlee,Freeport-McMoRan Morenci Inc.,Freeport-McMoRan Morenci Inc.,Arizona,Greenlee,Morenci Mine,33.089,-109.35375,AZ,GREENLEE,FREEPORT-MCMORAN INC,FREEPORT-MCMORAN MORENCI INC,33.065,-109.34222,Mercury compounds,0.9,,2.871215884,Arizona,AZ - Greenlee,FREEPORT-MCMORAN MORENCI INC.,33.065,-109.34222,Selenium Compounds,0.033864828,HAP,2.871215884,Copper production,Molybdenum production,,,408.233133,2.26796185,453.59237,2.72155422,453.59237,2.26796185,kt,Freeport-McMoran Annual Report 2022,Active,Copper
ARIZONA,Greenlee,Freeport-McMoRan Morenci Inc.,Freeport-McMoRan Morenci Inc.,Arizona,Greenlee,Morenci Mine,33.089,-109.35375,AZ,GREENLEE,FREEPORT-MCMORAN INC,FREEPORT-MCMORAN MORENCI INC,33.065,-109.34222,Ammonia,13000,1500,2.871215884,Arizona,AZ - Greenlee,FREEPORT-MCMORAN MORENCI INC.,33.065,-109.34222,Antimony Compounds,0.03206167,HAP,2.871215884,Copper production,Molybdenum production,,,408.233133,2.26796185,453.59237,2.72155422,453.59237,2.26796185,kt,Freeport-McMoran Annual Report 2022,Active,Copper
ARIZONA,Greenlee,Freeport-McMoRan Morenci Inc.,Freeport-McMoRan Morenci Inc.,Arizona,Greenlee,Morenci Mine,33.089,-109.35375,AZ,GREENLEE,FREEPORT-MCMORAN INC,FREEPORT-MCMORAN MORENCI INC,33.065,-109.34222,Cobalt  And Cobalt Compounds,250,,2.871215884,Arizona,AZ - Greenlee,FREEPORT-MCMORAN MORENCI INC.,33.065,-109.34222,Nickel Compounds,0.028609185,HAP,2.871215884,Copper production,Molybdenum production,,,408.233133,2.26796185,453.59237,2.72155422,453.59237,2.26796185,kt,Freeport-McMoran Annual Report 2022,Active,Copper
ARIZONA,Greenlee,Freeport-McMoRan Morenci Inc.,Freeport-McMoRan Morenci Inc.,Arizona,Greenlee,Morenci Mine,33.089,-109.35375,AZ,GREENLEE,FREEPORT-MCMORAN INC,FREEPORT-MCMORAN MORENCI INC,33.065,-109.34222,Dioxin and dioxin-like compounds,0.000800277,,2.871215884,Arizona,AZ - Greenlee,FREEPORT-MCMORAN MORENCI INC.,33.065,-109.34222,Cobalt Compounds,0.021402404,HAP,2.871215884,Copper production,Molybdenum production,,,408.233133,2.26796185,453.59237,2.72155422,453.59237,2.26796185,kt,Freeport-McMoran Annual Report 2022,Active,Copper
ARIZONA,Greenlee,Freeport-McMoRan Morenci Inc.,Freeport-McMoRan Morenci Inc.,Arizona,Greenlee,Morenci Mine,33.089,-109.35375,AZ,GREENLEE,FREEPORT-MCMORAN INC,FREEPORT-MCMORAN MORENCI INC,33.065,-109.34222,Barium compounds (except for barium sulfate (CAS No. 7727-43-7)),5,,2.871215884,Arizona,AZ - Greenlee,FREEPORT-MCMORAN MORENCI INC.,33.065,-109.34222,Chromium Compounds,0.019400992,HAP,2.871215884,Copper production,Molybdenum production,,,408.233133,2.26796185,453.59237,2.72155422,453.59237,2.26796185,kt,Freeport-McMoran Annual Report 2022,Active,Copper
ARIZONA,Greenlee,Freeport-McMoRan Morenci Inc.,Freeport-McMoRan Morenci Inc.,Arizona,Greenlee,Morenci Mine,33.089,-109.35375,AZ,GREENLEE,FREEPORT-MCMORAN INC,FREEPORT-MCMORAN MORENCI INC,33.065,-109.34222,Ethylene glycol,,,2.871215884,Arizona,AZ - Greenlee,FREEPORT-MCMORAN MORENCI INC.,33.065,-109.34222,Cadmium Compounds,0.005618996,HAP,2.871215884,Copper production,Molybdenum production,,,408.233133,2.26796185,453.59237,2.72155422,453.59237,2.26796185,kt,Freeport-McMoran Annual Report 2022,Active,Copper
ARIZONA,Greenlee,Freeport-McMoRan Morenci Inc.,Freeport-McMoRan Morenci Inc.,Arizona,Greenlee,Morenci Mine,33.089,-109.35375,AZ,GREENLEE,FREEPORT-MCMORAN INC,FREEPORT-MCMORAN MORENCI INC,33.065,-109.34222,Selenium compounds,,,2.871215884,Arizona,AZ - Greenlee,FREEPORT-MCMORAN MORENCI INC.,33.065,-109.34222,Acetaldehyde,0.004410962,HAP,2.871215884,Copper production,Molybdenum production,,,408.233133,2.26796185,453.59237,2.72155422,453.59237,2.26796185,kt,Freeport-McMoran Annual Report 2022,Active,Copper
ARIZONA,Greenlee,Freeport-McMoRan Morenci Inc.,Freeport-McMoRan Morenci Inc.,Arizona,Greenlee,Morenci Mine,33.089,-109.35375,AZ,GREENLEE,FREEPORT-MCMORAN INC,FREEPORT-MCMORAN MORENCI INC,33.065,-109.34222,Nonylphenol,,,2.871215884,Arizona,AZ - Greenlee,FREEPORT-MCMORAN MORENCI INC.,33.065,-109.34222,Beryllium Compounds,0.003662221,HAP,2.871215884,Copper production,Molybdenum production,,,408.233133,2.26796185,453.59237,2.72155422,453.59237,2.26796185,kt,Freeport-McMoran Annual Report 2022,Active,Copper
ARIZONA,Greenlee,Freeport-McMoRan Morenci Inc.,Freeport-McMoRan Morenci Inc.,Arizona,Greenlee,Morenci Mine,33.089,-109.35375,AZ,GREENLEE,FREEPORT-MCMORAN INC,FREEPORT-MCMORAN MORENCI INC,33.065,-109.34222,n-Butyl alcohol,750,,2.871215884,Arizona,AZ - Greenlee,FREEPORT-MCMORAN MORENCI INC.,33.065,-109.34222,Propylene Oxide,0.002771289,HAP,2.871215884,Copper production,Molybdenum production,,,408.233133,2.26796185,453.59237,2.72155422,453.59237,2.26796185,kt,Freeport-McMoran Annual Report 2022,Active,Copper
ARIZONA,Greenlee,Freeport-McMoRan Morenci Inc.,Freeport-McMoRan Morenci Inc.,Arizona,Greenlee,Morenci Mine,33.089,-109.35375,,,,,,,,,,,Arizona,AZ - Greenlee,FREEPORT-MCMORAN MORENCI INC.,33.065,-109.34222,Polycyclic Organic Matter,0.002258066,HAP,2.871215884,Copper production,Molybdenum production,,,408.233133,2.26796185,453.59237,2.72155422,453.59237,2.26796185,kt,Freeport-McMoran Annual Report 2022,Active,Copper
ARIZONA,Greenlee,Freeport-McMoRan Morenci Inc.,Freeport-McMoRan Morenci Inc.,Arizona,Greenlee,Morenci Mine,33.089,-109.35375,,,,,,,,,,,Arizona,AZ - Greenlee,FREEPORT-MCMORAN MORENCI INC.,33.065,-109.34222,Acrolein,0.000992495,HAP,2.871215884,Copper production,Molybdenum production,,,408.233133,2.26796185,453.59237,2.72155422,453.59237,2.26796185,kt,Freeport-McMoran Annual Report 2022,Active,Copper
ARIZONA,Greenlee,Freeport-McMoRan Morenci Inc.,Freeport-McMoRan Morenci Inc.,Arizona,Greenlee,Morenci Mine,33.089,-109.35375,,,,,,,,,,,Arizona,AZ - Greenlee,FREEPORT-MCMORAN MORENCI INC.,33.065,-109.34222,Mercury Compounds,0.000590546,HAP,2.871215884,Copper production,Molybdenum production,,,408.233133,2.26796185,453.59237,2.72155422,453.59237,2.26796185,kt,Freeport-McMoran Annual Report 2022,Active,Copper
ARIZONA,Greenlee,Freeport-McMoRan Morenci Inc.,Freeport-McMoRan Morenci Inc.,Arizona,Greenlee,Morenci Mine,33.089,-109.35375,,,,,,,,,,,Arizona,AZ - Greenlee,FREEPORT-MCMORAN MORENCI INC.,33.065,-109.34222,Cumene,0.000488972,HAP,2.871215884,Copper production,Molybdenum production,,,408.233133,2.26796185,453.59237,2.72155422,453.59237,2.26796185,kt,Freeport-McMoran Annual Report 2022,Active,Copper
ARIZONA,Greenlee,Freeport-McMoRan Morenci Inc.,Freeport-McMoRan Morenci Inc.,Arizona,Greenlee,Morenci Mine,33.089,-109.35375,,,,,,,,,,,Arizona,AZ - Greenlee,FREEPORT-MCMORAN MORENCI INC.,33.065,-109.34222,Methanol,0.00041115,HAP,2.871215884,Copper production,Molybdenum production,,,408.233133,2.26796185,453.59237,2.72155422,453.59237,2.26796185,kt,Freeport-McMoran Annual Report 2022,Active,Copper
ARIZONA,Greenlee,Freeport-McMoRan Morenci Inc.,Freeport-McMoRan Morenci Inc.,Arizona,Greenlee,Morenci Mine,33.089,-109.35375,,,,,,,,,,,Arizona,AZ - Greenlee,FREEPORT-MCMORAN MORENCI INC.,33.065,-109.34222,Naphthalene,0.000372771,HAP,2.871215884,Copper production,Molybdenum production,,,408.233133,2.26796185,453.59237,2.72155422,453.59237,2.26796185,kt,Freeport-McMoran Annual Report 2022,Active,Copper
ARIZONA,Greenlee,Freeport-McMoRan Morenci Inc.,Freeport-McMoRan Morenci Inc.,Arizona,Greenlee,Morenci Mine,33.089,-109.35375,,,,,,,,,,,Arizona,AZ - Greenlee,FREEPORT-MCMORAN MORENCI INC.,33.065,-109.34222,"1,4-Dichlorobenzene",0.000325647,HAP,2.871215884,Copper production,Molybdenum production,,,408.233133,2.26796185,453.59237,2.72155422,453.59237,2.26796185,kt,Freeport-McMoran Annual Report 2022,Active,Copper
ARIZONA,Greenlee,Freeport-McMoRan Morenci Inc.,Freeport-McMoRan Morenci Inc.,Arizona,Greenlee,Morenci Mine,33.089,-109.35375,,,,,,,,,,,Arizona,AZ - Greenlee,FREEPORT-MCMORAN MORENCI INC.,33.065,-109.34222,"1,3-Butadiene",0.000140596,HAP,2.871215884,Copper production,Molybdenum production,,,408.233133,2.26796185,453.59237,2.72155422,453.59237,2.26796185,kt,Freeport-McMoran Annual Report 2022,Active,Copper
ARIZONA,Greenlee,Freeport-McMoRan Morenci Inc.,Freeport-McMoRan Morenci Inc.,Arizona,Greenlee,Morenci Mine,33.089,-109.35375,,,,,,,,,,,Arizona,AZ - Greenlee,FREEPORT-MCMORAN MORENCI INC.,33.065,-109.34222,Methylene Chloride,5.54E-06,HAP,2.871215884,Copper production,Molybdenum production,,,408.233133,2.26796185,453.59237,2.72155422,453.59237,2.26796185,kt,Freeport-McMoran Annual Report 2022,Active,Copper
ARIZONA,Greenlee,Freeport-McMoRan Morenci Inc.,Freeport-McMoRan Morenci Inc.,Arizona,Greenlee,Morenci Mine,33.089,-109.35375,,,,,,,,,,,Arizona,AZ - Greenlee,FREEPORT-MCMORAN MORENCI INC.,33.065,-109.34222,"1,1,2,2-Tetrachloroethane",3.40E-06,HAP,2.871215884,Copper production,Molybdenum production,,,408.233133,2.26796185,453.59237,2.72155422,453.59237,2.26796185,kt,Freeport-McMoran Annual Report 2022,Active,Copper
ARIZONA,Greenlee,Freeport-McMoRan Morenci Inc.,Freeport-McMoRan Morenci Inc.,Arizona,Greenlee,Morenci Mine,33.089,-109.35375,,,,,,,,,,,Arizona,AZ - Greenlee,FREEPORT-MCMORAN MORENCI INC.,33.065,-109.34222,Ethylene Dibromide,2.86E-06,HAP,2.871215884,Copper production,Molybdenum production,,,408.233133,2.26796185,453.59237,2.72155422,453.59237,2.26796185,kt,Freeport-McMoran Annual Report 2022,Active,Copper
ARIZONA,Greenlee,Freeport-McMoRan Morenci Inc.,Freeport-McMoRan Morenci Inc.,Arizona,Greenlee,Morenci Mine,33.089,-109.35375,,,,,,,,,,,Arizona,AZ - Greenlee,FREEPORT-MCMORAN MORENCI INC.,33.065,-109.34222,Carbon Tetrachloride,2.38E-06,HAP,2.871215884,Copper production,Molybdenum production,,,408.233133,2.26796185,453.59237,2.72155422,453.59237,2.26796185,kt,Freeport-McMoran Annual Report 2022,Active,Copper
ARIZONA,Greenlee,Freeport-McMoRan Morenci Inc.,Freeport-McMoRan Morenci Inc.,Arizona,Greenlee,Morenci Mine,33.089,-109.35375,,,,,,,,,,,Arizona,AZ - Greenlee,FREEPORT-MCMORAN MORENCI INC.,33.065,-109.34222,"1,1,2-Trichloroethane",2.06E-06,HAP,2.871215884,Copper production,Molybdenum production,,,408.233133,2.26796185,453.59237,2.72155422,453.59237,2.26796185,kt,Freeport-McMoran Annual Report 2022,Active,Copper
ARIZONA,Greenlee,Freeport-McMoRan Morenci Inc.,Freeport-McMoRan Morenci Inc.,Arizona,Greenlee,Morenci Mine,33.089,-109.35375,,,,,,,,,,,Arizona,AZ - Greenlee,FREEPORT-MCMORAN MORENCI INC.,33.065,-109.34222,Chloroform,1.84E-06,HAP,2.871215884,Copper production,Molybdenum production,,,408.233133,2.26796185,453.59237,2.72155422,453.59237,2.26796185,kt,Freeport-McMoran Annual Report 2022,Active,Copper
ARIZONA,Greenlee,Freeport-McMoRan Morenci Inc.,Freeport-McMoRan Morenci Inc.,Arizona,Greenlee,Morenci Mine,33.089,-109.35375,,,,,,,,,,,Arizona,AZ - Greenlee,FREEPORT-MCMORAN MORENCI INC.,33.065,-109.34222,Propylene Dichloride,1.75E-06,HAP,2.871215884,Copper production,Molybdenum production,,,408.233133,2.26796185,453.59237,2.72155422,453.59237,2.26796185,kt,Freeport-McMoran Annual Report 2022,Active,Copper
ARIZONA,Greenlee,Freeport-McMoRan Morenci Inc.,Freeport-McMoRan Morenci Inc.,Arizona,Greenlee,Morenci Mine,33.089,-109.35375,,,,,,,,,,,Arizona,AZ - Greenlee,FREEPORT-MCMORAN MORENCI INC.,33.065,-109.34222,Chlorobenzene,1.73E-06,HAP,2.871215884,Copper production,Molybdenum production,,,408.233133,2.26796185,453.59237,2.72155422,453.59237,2.26796185,kt,Freeport-McMoran Annual Report 2022,Active,Copper
ARIZONA,Greenlee,Freeport-McMoRan Morenci Inc.,Freeport-McMoRan Morenci Inc.,Arizona,Greenlee,Morenci Mine,33.089,-109.35375,,,,,,,,,,,Arizona,AZ - Greenlee,FREEPORT-MCMORAN MORENCI INC.,33.065,-109.34222,"1,3-Dichloropropene",1.71E-06,HAP,2.871215884,Copper production,Molybdenum production,,,408.233133,2.26796185,453.59237,2.72155422,453.59237,2.26796185,kt,Freeport-McMoran Annual Report 2022,Active,Copper
ARIZONA,Greenlee,Freeport-McMoRan Morenci Inc.,Freeport-McMoRan Morenci Inc.,Arizona,Greenlee,Morenci Mine,33.089,-109.35375,,,,,,,,,,,Arizona,AZ - Greenlee,FREEPORT-MCMORAN MORENCI INC.,33.065,-109.34222,Styrene,1.60E-06,HAP,2.871215884,Copper production,Molybdenum production,,,408.233133,2.26796185,453.59237,2.72155422,453.59237,2.26796185,kt,Freeport-McMoran Annual Report 2022,Active,Copper
ARIZONA,Greenlee,Freeport-McMoRan Morenci Inc.,Freeport-McMoRan Morenci Inc.,Arizona,Greenlee,Morenci Mine,33.089,-109.35375,,,,,,,,,,,Arizona,AZ - Greenlee,FREEPORT-MCMORAN MORENCI INC.,33.065,-109.34222,Ethylene Dichloride,1.52E-06,HAP,2.871215884,Copper production,Molybdenum production,,,408.233133,2.26796185,453.59237,2.72155422,453.59237,2.26796185,kt,Freeport-McMoran Annual Report 2022,Active,Copper
ARIZONA,Greenlee,Freeport-McMoRan Morenci Inc.,Freeport-McMoRan Morenci Inc.,Arizona,Greenlee,Morenci Mine,33.089,-109.35375,,,,,,,,,,,Arizona,AZ - Greenlee,FREEPORT-MCMORAN MORENCI INC.,33.065,-109.34222,Ethylidene Dichloride,1.52E-06,HAP,2.871215884,Copper production,Molybdenum production,,,408.233133,2.26796185,453.59237,2.72155422,453.59237,2.26796185,kt,Freeport-McMoran Annual Report 2022,Active,Copper
ARIZONA,Greenlee,Freeport-McMoRan Morenci Inc.,Freeport-McMoRan Morenci Inc.,Arizona,Greenlee,Morenci Mine,33.089,-109.35375,,,,,,,,,,,Arizona,AZ - Greenlee,FREEPORT-MCMORAN MORENCI INC.,33.065,-109.34222,Vinyl Chloride,9.65E-07,HAP,2.871215884,Copper production,Molybdenum production,,,408.233133,2.26796185,453.59237,2.72155422,453.59237,2.26796185,kt,Freeport-McMoran Annual Report 2022,Active,Copper
ARIZONA,Graham,Freeport-McMoRan Safford Inc,Freeport-McMoRan Safford Inc,Arizona,Graham,Phelps Dodge Safford Project,32.9623,-109.67396,AZ,GRAHAM,FREEPORT-MCMORAN INC,FREEPORT-MCMORAN SAFFORD INC,32.958333,-109.675,Nitrate compounds (water dissociable; reportable only when in aqueous solution),,,0.450572051,,,,,,,,,,Copper production,,,,120.2019781,,73.02837157,,49.8951607,,kt,Freeport-McMoran Annual Report 2022,Active,Copper
ARIZONA,Graham,Freeport-McMoRan Safford Inc,Freeport-McMoRan Safford Inc,Arizona,Graham,Phelps Dodge Safford Project,32.9623,-109.67396,AZ,GRAHAM,FREEPORT-MCMORAN INC,FREEPORT-MCMORAN SAFFORD INC,32.958333,-109.675,Nickel,,,0.450572051,,,,,,,,,,Copper production,,,,120.2019781,,73.02837157,,49.8951607,,kt,Freeport-McMoran Annual Report 2022,Active,Copper
ARIZONA,Graham,Freeport-McMoRan Safford Inc,Freeport-McMoRan Safford Inc,Arizona,Graham,Phelps Dodge Safford Project,32.9623,-109.67396,AZ,GRAHAM,FREEPORT-MCMORAN INC,FREEPORT-MCMORAN SAFFORD INC,32.958333,-109.675,Copper  And Copper Compounds,27000,250,0.450572051,,,,,,,,,,Copper production,,,,120.2019781,,73.02837157,,49.8951607,,kt,Freeport-McMoran Annual Report 2022,Active,Copper
ARIZONA,Graham,Freeport-McMoRan Safford Inc,Freeport-McMoRan Safford Inc,Arizona,Graham,Phelps Dodge Safford Project,32.9623,-109.67396,AZ,GRAHAM,FREEPORT-MCMORAN INC,FREEPORT-MCMORAN SAFFORD INC,32.958333,-109.675,"Sulfuric acid (acid aerosols including mists, vapors, gas, fog, and other airborne forms of any particle size)",33000,4200,0.450572051,,,,,,,,,,Copper production,,,,120.2019781,,73.02837157,,49.8951607,,kt,Freeport-McMoran Annual Report 2022,Active,Copper
ARIZONA,Graham,Freeport-McMoRan Safford Inc,Freeport-McMoRan Safford Inc,Arizona,Graham,Phelps Dodge Safford Project,32.9623,-109.67396,AZ,GRAHAM,FREEPORT-MCMORAN INC,FREEPORT-MCMORAN SAFFORD INC,32.958333,-109.675,Manganese,5,,0.450572051,,,,,,,,,,Copper production,,,,120.2019781,,73.02837157,,49.8951607,,kt,Freeport-McMoran Annual Report 2022,Active,Copper
ARIZONA,Graham,Freeport-McMoRan Safford Inc,Freeport-McMoRan Safford Inc,Arizona,Graham,Phelps Dodge Safford Project,32.9623,-109.67396,AZ,GRAHAM,FREEPORT-MCMORAN INC,FREEPORT-MCMORAN SAFFORD INC,32.958333,-109.675,Cobalt compounds,,,0.450572051,,,,,,,,,,Copper production,,,,120.2019781,,73.02837157,,49.8951607,,kt,Freeport-McMoran Annual Report 2022,Active,Copper
ARIZONA,Graham,Freeport-McMoRan Safford Inc,Freeport-McMoRan Safford Inc,Arizona,Graham,Phelps Dodge Safford Project,32.9623,-109.67396,AZ,GRAHAM,FREEPORT-MCMORAN INC,FREEPORT-MCMORAN SAFFORD INC,32.958333,-109.675,Lead  And Lead Compounds,165,,0.450572051,,,,,,,,,,Copper production,,,,120.2019781,,73.02837157,,49.8951607,,kt,Freeport-McMoran Annual Report 2022,Active,Copper
ARIZONA,Graham,Freeport-McMoRan Safford Inc,Freeport-McMoRan Safford Inc,Arizona,Graham,Phelps Dodge Safford Project,32.9623,-109.67396,AZ,GRAHAM,FREEPORT-MCMORAN INC,FREEPORT-MCMORAN SAFFORD INC,32.958333,-109.675,Ammonia,3300,,0.450572051,,,,,,,,,,Copper production,,,,120.2019781,,73.02837157,,49.8951607,,kt,Freeport-McMoran Annual Report 2022,Active,Copper
ARIZONA,Graham,Freeport-McMoRan Safford Inc,Freeport-McMoRan Safford Inc,Arizona,Graham,Phelps Dodge Safford Project,32.9623,-109.67396,AZ,GRAHAM,FREEPORT-MCMORAN INC,FREEPORT-MCMORAN SAFFORD INC,32.958333,-109.675,Dioxin and dioxin-like compounds,0.000259043,,0.450572051,,,,,,,,,,Copper production,,,,120.2019781,,73.02837157,,49.8951607,,kt,Freeport-McMoran Annual Report 2022,Active,Copper
ARIZONA,Graham,Freeport-McMoRan Safford Inc,Freeport-McMoRan Safford Inc,Arizona,Graham,Phelps Dodge Safford Project,32.9623,-109.67396,AZ,GRAHAM,FREEPORT-MCMORAN INC,FREEPORT-MCMORAN SAFFORD INC,32.958333,-109.675,Chromium,,,0.450572051,,,,,,,,,,Copper production,,,,120.2019781,,73.02837157,,49.8951607,,kt,Freeport-McMoran Annual Report 2022,Active,Copper
ARIZONA,Pima,Freeport-McMoRan Sierrita Ops.,Freeport-McMoRan Sierrita Ops. ,Arizona,Pima,Sierrita,31.87152,-111.14879,AZ,PIMA,FREEPORT-MCMORAN INC,FREEPORT-MCMORAN SIERRITA INC,31.876444,-111.100472,Manganese,250,,,,,,,,,,,,Copper production,Molybdenum production,,,85.72895793,9.52543977,80.73944186,7.71107029,72.5747792,7.25747792,kt,Freeport-McMoran Annual Report 2022,Active,Copper
ARIZONA,Pima,Freeport-McMoRan Sierrita Ops.,Freeport-McMoRan Sierrita Ops. ,Arizona,Pima,Sierrita,31.87152,-111.14879,AZ,PIMA,FREEPORT-MCMORAN INC,FREEPORT-MCMORAN SIERRITA INC,31.876444,-111.100472,n-Butyl alcohol,1100,,,,,,,,,,,,Copper production,Molybdenum production,,,85.72895793,9.52543977,80.73944186,7.71107029,72.5747792,7.25747792,kt,Freeport-McMoran Annual Report 2022,Active,Copper
ARIZONA,Pima,Freeport-McMoRan Sierrita Ops.,Freeport-McMoRan Sierrita Ops. ,Arizona,Pima,Sierrita,31.87152,-111.14879,AZ,PIMA,FREEPORT-MCMORAN INC,FREEPORT-MCMORAN SIERRITA INC,31.876444,-111.100472,Nickel,5,,,,,,,,,,,,Copper production,Molybdenum production,,,85.72895793,9.52543977,80.73944186,7.71107029,72.5747792,7.25747792,kt,Freeport-McMoran Annual Report 2022,Active,Copper
ARIZONA,Pima,Freeport-McMoRan Sierrita Ops.,Freeport-McMoRan Sierrita Ops. ,Arizona,Pima,Sierrita,31.87152,-111.14879,AZ,PIMA,FREEPORT-MCMORAN INC,FREEPORT-MCMORAN SIERRITA INC,31.876444,-111.100472,"Sulfuric acid (acid aerosols including mists, vapors, gas, fog, and other airborne forms of any particle size)",3800,,,,,,,,,,,,Copper production,Molybdenum production,,,85.72895793,9.52543977,80.73944186,7.71107029,72.5747792,7.25747792,kt,Freeport-McMoran Annual Report 2022,Active,Copper
ARIZONA,Pima,Freeport-McMoRan Sierrita Ops.,Freeport-McMoRan Sierrita Ops. ,Arizona,Pima,Sierrita,31.87152,-111.14879,AZ,PIMA,FREEPORT-MCMORAN INC,FREEPORT-MCMORAN SIERRITA INC,31.876444,-111.100472,Chromium,5,,,,,,,,,,,,Copper production,Molybdenum production,,,85.72895793,9.52543977,80.73944186,7.71107029,72.5747792,7.25747792,kt,Freeport-McMoran Annual Report 2022,Active,Copper
ARIZONA,Pima,Freeport-McMoRan Sierrita Ops.,Freeport-McMoRan Sierrita Ops. ,Arizona,Pima,Sierrita,31.87152,-111.14879,AZ,PIMA,FREEPORT-MCMORAN INC,FREEPORT-MCMORAN SIERRITA INC,31.876444,-111.100472,Nitrate compounds (water dissociable; reportable only when in aqueous solution),,,,,,,,,,,,,Copper production,Molybdenum production,,,85.72895793,9.52543977,80.73944186,7.71107029,72.5747792,7.25747792,kt,Freeport-McMoran Annual Report 2022,Active,Copper
ARIZONA,Pima,Freeport-McMoRan Sierrita Ops.,Freeport-McMoRan Sierrita Ops. ,Arizona,Pima,Sierrita,31.87152,-111.14879,AZ,PIMA,FREEPORT-MCMORAN INC,FREEPORT-MCMORAN SIERRITA INC,31.876444,-111.100472,Arsenic,,,,,,,,,,,,,Copper production,Molybdenum production,,,85.72895793,9.52543977,80.73944186,7.71107029,72.5747792,7.25747792,kt,Freeport-McMoran Annual Report 2022,Active,Copper
ARIZONA,Pima,Freeport-McMoRan Sierrita Ops.,Freeport-McMoRan Sierrita Ops. ,Arizona,Pima,Sierrita,31.87152,-111.14879,AZ,PIMA,FREEPORT-MCMORAN INC,FREEPORT-MCMORAN SIERRITA INC,31.876444,-111.100472,Sodium nitrite,,,,,,,,,,,,,Copper production,Molybdenum production,,,85.72895793,9.52543977,80.73944186,7.71107029,72.5747792,7.25747792,kt,Freeport-McMoran Annual Report 2022,Active,Copper
ARIZONA,Pima,Freeport-McMoRan Sierrita Ops.,Freeport-McMoRan Sierrita Ops. ,Arizona,Pima,Sierrita,31.87152,-111.14879,AZ,PIMA,FREEPORT-MCMORAN INC,FREEPORT-MCMORAN SIERRITA INC,31.876444,-111.100472,Cobalt,,,,,,,,,,,,,Copper production,Molybdenum production,,,85.72895793,9.52543977,80.73944186,7.71107029,72.5747792,7.25747792,kt,Freeport-McMoran Annual Report 2022,Active,Copper
ARIZONA,Pima,Freeport-McMoRan Sierrita Ops.,Freeport-McMoRan Sierrita Ops. ,Arizona,Pima,Sierrita,31.87152,-111.14879,AZ,PIMA,FREEPORT-MCMORAN INC,FREEPORT-MCMORAN SIERRITA INC,31.876444,-111.100472,Copper  And Copper Compounds,250,250,,,,,,,,,,,Copper production,Molybdenum production,,,85.72895793,9.52543977,80.73944186,7.71107029,72.5747792,7.25747792,kt,Freeport-McMoran Annual Report 2022,Active,Copper
ARIZONA,Pima,Freeport-McMoRan Sierrita Ops.,Freeport-McMoRan Sierrita Ops. ,Arizona,Pima,Sierrita,31.87152,-111.14879,AZ,PIMA,FREEPORT-MCMORAN INC,FREEPORT-MCMORAN SIERRITA INC,31.876444,-111.100472,Lead  And Lead Compounds,68,3.4,,,,,,,,,,,Copper production,Molybdenum production,,,85.72895793,9.52543977,80.73944186,7.71107029,72.5747792,7.25747792,kt,Freeport-McMoran Annual Report 2022,Active,Copper
ARIZONA,Pima,Freeport-McMoRan Sierrita Ops.,Freeport-McMoRan Sierrita Ops. ,Arizona,Pima,Sierrita,31.87152,-111.14879,AZ,PIMA,FREEPORT-MCMORAN INC,FREEPORT-MCMORAN SIERRITA INC,31.876444,-111.100472,Ammonia,1900,2000,,,,,,,,,,,Copper production,Molybdenum production,,,85.72895793,9.52543977,80.73944186,7.71107029,72.5747792,7.25747792,kt,Freeport-McMoran Annual Report 2022,Active,Copper
ARIZONA,Pima,Freeport-McMoRan Sierrita Ops.,Freeport-McMoRan Sierrita Ops. ,Arizona,Pima,Sierrita,31.87152,-111.14879,AZ,PIMA,FREEPORT-MCMORAN INC,FREEPORT-MCMORAN SIERRITA INC,31.876444,-111.100472,Mercury compounds,0.1,,,,,,,,,,,,Copper production,Molybdenum production,,,85.72895793,9.52543977,80.73944186,7.71107029,72.5747792,7.25747792,kt,Freeport-McMoran Annual Report 2022,Active,Copper
ARIZONA,Pima,Freeport-McMoRan Sierrita Ops.,Freeport-McMoRan Sierrita Ops. ,Arizona,Pima,Sierrita,31.87152,-111.14879,AZ,PIMA,FREEPORT-MCMORAN INC,FREEPORT-MCMORAN SIERRITA INC,31.876444,-111.100472,Chlorine,,750,,,,,,,,,,,Copper production,Molybdenum production,,,85.72895793,9.52543977,80.73944186,7.71107029,72.5747792,7.25747792,kt,Freeport-McMoran Annual Report 2022,Active,Copper
ARIZONA,Pima,Freeport-McMoRan Sierrita Ops.,Freeport-McMoRan Sierrita Ops. ,Arizona,Pima,Sierrita,31.87152,-111.14879,AZ,PIMA,FREEPORT-MCMORAN INC,FREEPORT-MCMORAN SIERRITA INC,31.876444,-111.100472,Molybdenum trioxide,,13000,,,,,,,,,,,Copper production,Molybdenum production,,,85.72895793,9.52543977,80.73944186,7.71107029,72.5747792,7.25747792,kt,Freeport-McMoran Annual Report 2022,Active,Copper
ARIZONA,Gila,Asarco LLC,Hayden Concentrator,Arizona,Gila,Hayden Copper Concentrator,33.00539,-110.78259,AZ,GILA,AMERICAS MINING CORP,ASARCO LLC RAY COMPLEX/ HAYDEN SMELTER & CONCENTRATOR,33.003378,-110.77632,Lead  And Lead Compounds,5,1,0.626974328,,,,,,,,,,Produccin de ctodos ESDE,Cobre contenido en el concentrado,11,36.8,11,39.2,11.4,37.9,,,kt,Grupo Mxico Reporte Anual 2022,Active,Copper
ARIZONA,Gila,Asarco LLC,Hayden Concentrator,Arizona,Gila,Hayden Copper Concentrator,33.00539,-110.78259,AZ,GILA,AMERICAS MINING CORP,ASARCO LLC RAY COMPLEX/ HAYDEN SMELTER & CONCENTRATOR,33.003378,-110.77632,Manganese  And Manganese Compounds,0.8,,0.626974328,,,,,,,,,,Produccin de ctodos ESDE,Cobre contenido en el concentrado,11,36.8,11,39.2,11.4,37.9,,,kt,Grupo Mxico Reporte Anual 2022,Active,Copper
ARIZONA,Gila,Asarco LLC,Hayden Concentrator,Arizona,Gila,Hayden Copper Concentrator,33.00539,-110.78259,AZ,GILA,AMERICAS MINING CORP,ASARCO LLC RAY COMPLEX/ HAYDEN SMELTER & CONCENTRATOR,33.003378,-110.77632,Chromium  and Chromium Compounds(except for chromite ore mined in the Transvaal Region),0.4,,0.626974328,,,,,,,,,,Produccin de ctodos ESDE,Cobre contenido en el concentrado,11,36.8,11,39.2,11.4,37.9,,,kt,Grupo Mxico Reporte Anual 2022,Active,Copper
ARIZONA,Gila,Asarco LLC,Hayden Concentrator,Arizona,Gila,Hayden Copper Concentrator,33.00539,-110.78259,AZ,GILA,AMERICAS MINING CORP,ASARCO LLC RAY COMPLEX/ HAYDEN SMELTER & CONCENTRATOR,33.003378,-110.77632,Arsenic  And Arsenic Compounds,2,,0.626974328,,,,,,,,,,Produccin de ctodos ESDE,Cobre contenido en el concentrado,11,36.8,11,39.2,11.4,37.9,,,kt,Grupo Mxico Reporte Anual 2022,Active,Copper
ARIZONA,Gila,Asarco LLC,Hayden Concentrator,Arizona,Gila,Hayden Copper Concentrator,33.00539,-110.78259,AZ,GILA,AMERICAS MINING CORP,ASARCO LLC RAY COMPLEX/ HAYDEN SMELTER & CONCENTRATOR,33.003378,-110.77632,Zinc compounds,19.6,,0.626974328,,,,,,,,,,Produccin de ctodos ESDE,Cobre contenido en el concentrado,11,36.8,11,39.2,11.4,37.9,,,kt,Grupo Mxico Reporte Anual 2022,Active,Copper
ARIZONA,Gila,Asarco LLC,Hayden Concentrator,Arizona,Gila,Hayden Copper Concentrator,33.00539,-110.78259,AZ,GILA,AMERICAS MINING CORP,ASARCO LLC RAY COMPLEX/ HAYDEN SMELTER & CONCENTRATOR,33.003378,-110.77632,Copper  And Copper Compounds,122,13,0.626974328,,,,,,,,,,Produccin de ctodos ESDE,Cobre contenido en el concentrado,11,36.8,11,39.2,11.4,37.9,,,kt,Grupo Mxico Reporte Anual 2022,Active,Copper
UTAH,Salt Lake,Kennecott Utah Copper LLC,Kennecott Keystone Underground,Utah,Summit,Keystone Mine,40.59994,-111.51745,,,,,,,,,,,,,,,,,,,,,,,,,,,,,,,,Active,Copper
UTAH,San Juan,Lisbon Valley Mining Co LLC,Lisbon Valley Mining Co,Utah,San Juan,Lisbon Valley Copper,38.19719,-109.20849,UT,UTAH,NA,LISBON VALLEY MINING CO LLC,38.265674,-109.290161,Lead  And Lead Compounds,,2.46,,,,,,,,,,,,,,,,,,,,,,,Active,Copper
UTAH,San Juan,Lisbon Valley Mining Co LLC,Lisbon Valley Mining Co,Utah,San Juan,Lisbon Valley Copper,38.19719,-109.20849,UT,UTAH,NA,LISBON VALLEY MINING CO LLC,38.265674,-109.290161,Copper  And Copper Compounds,,,,,,,,,,,,,,,,,,,,,,,,,Active,Copper
UTAH,San Juan,Lisbon Valley Mining Co LLC,Lisbon Valley Mining Co,Utah,San Juan,Lisbon Valley Copper,38.19719,-109.20849,UT,UTAH,NA,LISBON VALLEY MINING CO LLC,38.265674,-109.290161,"Sulfuric acid (acid aerosols including mists, vapors, gas, fog, and other airborne forms of any particle size)",66701,34,,,,,,,,,,,,,,,,,,,,,,,Active,Copper
ARIZONA,Mohave,"Origin Mining Company, LLC.",Mineral Park ,Arizona,Mohave,Mineral Park,35.36422,-114.15026,AZ,MOHAVE,NA,MINERAL PARK MINE,35,-114,Cobalt compounds,,,,,,,,,,,,,,,,,,,,,,,,,In Construction,Copper
ARIZONA,Mohave,"Origin Mining Company, LLC.",Mineral Park ,Arizona,Mohave,Mineral Park,35.36422,-114.15026,AZ,MOHAVE,NA,MINERAL PARK MINE,35,-114,Copper  And Copper Compounds,,1,,,,,,,,,,,,,,,,,,,,,,,In Construction,Copper
ARIZONA,Pima,"ASARCO LLC, a Delaware Limited Liability Company",MISSION/SAN XAVIER/EISENHOWER,Arizona,Pima,Mission Mine,31.99234,-111.0643,AZ,PIMA,AMERICAS MINING CORP,ASARCO LLC MISSION COMPLEX,31.998092,-111.052412,Ammonia,530,,1.291830594,Arizona,AZ - Pima,Mission Complex,32.000005,-111.055231,PM10 Primary (Filt + Cond),1051.443913,CAP,1.206999686,Cobre contenido en el concentrado,,42.8,,54.9,,57.8,,,,kt,Grupo Mxico Reporte Anual 2022,Active,Copper
ARIZONA,Pima,"ASARCO LLC, a Delaware Limited Liability Company",MISSION/SAN XAVIER/EISENHOWER,Arizona,Pima,Mission Mine,31.99234,-111.0643,AZ,PIMA,AMERICAS MINING CORP,ASARCO LLC MISSION COMPLEX,31.998092,-111.052412,Nitrate compounds (water dissociable; reportable only when in aqueous solution),,,1.291830594,Arizona,AZ - Pima,Mission Complex,32.000005,-111.055231,PM2.5 Primary (Filt + Cond),153.9130785,CAP,1.206999686,Cobre contenido en el concentrado,,42.8,,54.9,,57.8,,,,kt,Grupo Mxico Reporte Anual 2022,Active,Copper
ARIZONA,Pima,"ASARCO LLC, a Delaware Limited Liability Company",MISSION/SAN XAVIER/EISENHOWER,Arizona,Pima,Mission Mine,31.99234,-111.0643,AZ,PIMA,AMERICAS MINING CORP,ASARCO LLC MISSION COMPLEX,31.998092,-111.052412,Nickel,0.059,,1.291830594,Arizona,AZ - Pima,Mission Complex,32.000005,-111.055231,Carbon Monoxide,141.961365,CAP,1.206999686,Cobre contenido en el concentrado,,42.8,,54.9,,57.8,,,,kt,Grupo Mxico Reporte Anual 2022,Active,Copper
ARIZONA,Pima,"ASARCO LLC, a Delaware Limited Liability Company",MISSION/SAN XAVIER/EISENHOWER,Arizona,Pima,Mission Mine,31.99234,-111.0643,AZ,PIMA,AMERICAS MINING CORP,ASARCO LLC MISSION COMPLEX,31.998092,-111.052412,Copper  And Copper Compounds,,7.2432,1.291830594,Arizona,AZ - Pima,Mission Complex,32.000005,-111.055231,Nitrogen Oxides,35.419008,CAP,1.206999686,Cobre contenido en el concentrado,,42.8,,54.9,,57.8,,,,kt,Grupo Mxico Reporte Anual 2022,Active,Copper
ARIZONA,Pima,"ASARCO LLC, a Delaware Limited Liability Company",MISSION/SAN XAVIER/EISENHOWER,Arizona,Pima,Mission Mine,31.99234,-111.0643,AZ,PIMA,AMERICAS MINING CORP,ASARCO LLC MISSION COMPLEX,31.998092,-111.052412,Manganese,4.506,0.06,1.291830594,Arizona,AZ - Pima,Mission Complex,32.000005,-111.055231,Carbon Dioxide,25.588672,GHG,1.206999686,Cobre contenido en el concentrado,,42.8,,54.9,,57.8,,,,kt,Grupo Mxico Reporte Anual 2022,Active,Copper
ARIZONA,Pima,"ASARCO LLC, a Delaware Limited Liability Company",MISSION/SAN XAVIER/EISENHOWER,Arizona,Pima,Mission Mine,31.99234,-111.0643,AZ,PIMA,AMERICAS MINING CORP,ASARCO LLC MISSION COMPLEX,31.998092,-111.052412,Chromium,0.151568,,1.291830594,Arizona,AZ - Pima,Mission Complex,32.000005,-111.055231,Sulfur Dioxide,4.19397,CAP,1.206999686,Cobre contenido en el concentrado,,42.8,,54.9,,57.8,,,,kt,Grupo Mxico Reporte Anual 2022,Active,Copper
ARIZONA,Pima,"ASARCO LLC, a Delaware Limited Liability Company",MISSION/SAN XAVIER/EISENHOWER,Arizona,Pima,Mission Mine,31.99234,-111.0643,AZ,PIMA,AMERICAS MINING CORP,ASARCO LLC MISSION COMPLEX,31.998092,-111.052412,Mercury  And Mercury Compounds,0.002872,0.006402,1.291830594,Arizona,AZ - Pima,Mission Complex,32.000005,-111.055231,Volatile Organic Compounds,1.377532,CAP,1.206999686,Cobre contenido en el concentrado,,42.8,,54.9,,57.8,,,,kt,Grupo Mxico Reporte Anual 2022,Active,Copper
ARIZONA,Pima,"ASARCO LLC, a Delaware Limited Liability Company",MISSION/SAN XAVIER/EISENHOWER,Arizona,Pima,Mission Mine,31.99234,-111.0643,AZ,PIMA,AMERICAS MINING CORP,ASARCO LLC MISSION COMPLEX,31.998092,-111.052412,Lead  And Lead Compounds,9.388141,2.926558,1.291830594,Arizona,AZ - Pima,Mission Complex,32.000005,-111.055231,Toluene,0.163027,HAP,1.206999686,Cobre contenido en el concentrado,,42.8,,54.9,,57.8,,,,kt,Grupo Mxico Reporte Anual 2022,Active,Copper
ARIZONA,Pima,"ASARCO LLC, a Delaware Limited Liability Company",MISSION/SAN XAVIER/EISENHOWER,Arizona,Pima,Mission Mine,31.99234,-111.0643,,,,,,,,,,,Arizona,AZ - Pima,Mission Complex,32.000005,-111.055231,Xylenes (Mixed Isomers),0.163017,HAP,1.206999686,Cobre contenido en el concentrado,,42.8,,54.9,,57.8,,,,kt,Grupo Mxico Reporte Anual 2022,Active,Copper
ARIZONA,Pima,"ASARCO LLC, a Delaware Limited Liability Company",MISSION/SAN XAVIER/EISENHOWER,Arizona,Pima,Mission Mine,31.99234,-111.0643,,,,,,,,,,,Arizona,AZ - Pima,Mission Complex,32.000005,-111.055231,Carbon Disulfide,0.15,HAP,1.206999686,Cobre contenido en el concentrado,,42.8,,54.9,,57.8,,,,kt,Grupo Mxico Reporte Anual 2022,Active,Copper
ARIZONA,Pima,"ASARCO LLC, a Delaware Limited Liability Company",MISSION/SAN XAVIER/EISENHOWER,Arizona,Pima,Mission Mine,31.99234,-111.0643,,,,,,,,,,,Arizona,AZ - Pima,Mission Complex,32.000005,-111.055231,Hexane,0.058,HAP,1.206999686,Cobre contenido en el concentrado,,42.8,,54.9,,57.8,,,,kt,Grupo Mxico Reporte Anual 2022,Active,Copper
ARIZONA,Pima,"ASARCO LLC, a Delaware Limited Liability Company",MISSION/SAN XAVIER/EISENHOWER,Arizona,Pima,Mission Mine,31.99234,-111.0643,,,,,,,,,,,Arizona,AZ - Pima,Mission Complex,32.000005,-111.055231,Benzene,0.057064,HAP,1.206999686,Cobre contenido en el concentrado,,42.8,,54.9,,57.8,,,,kt,Grupo Mxico Reporte Anual 2022,Active,Copper
ARIZONA,Pima,"ASARCO LLC, a Delaware Limited Liability Company",MISSION/SAN XAVIER/EISENHOWER,Arizona,Pima,Mission Mine,31.99234,-111.0643,,,,,,,,,,,Arizona,AZ - Pima,Mission Complex,32.000005,-111.055231,Ethylbenzene,0.037,HAP,1.206999686,Cobre contenido en el concentrado,,42.8,,54.9,,57.8,,,,kt,Grupo Mxico Reporte Anual 2022,Active,Copper
ARIZONA,Pima,"ASARCO LLC, a Delaware Limited Liability Company",MISSION/SAN XAVIER/EISENHOWER,Arizona,Pima,Mission Mine,31.99234,-111.0643,,,,,,,,,,,Arizona,AZ - Pima,Mission Complex,32.000005,-111.055231,Manganese Compounds,0.027597,HAP,1.206999686,Cobre contenido en el concentrado,,42.8,,54.9,,57.8,,,,kt,Grupo Mxico Reporte Anual 2022,Active,Copper
ARIZONA,Pima,"ASARCO LLC, a Delaware Limited Liability Company",MISSION/SAN XAVIER/EISENHOWER,Arizona,Pima,Mission Mine,31.99234,-111.0643,,,,,,,,,,,Arizona,AZ - Pima,Mission Complex,32.000005,-111.055231,Naphthalene,0.021005,HAP,1.206999686,Cobre contenido en el concentrado,,42.8,,54.9,,57.8,,,,kt,Grupo Mxico Reporte Anual 2022,Active,Copper
ARIZONA,Pima,"ASARCO LLC, a Delaware Limited Liability Company",MISSION/SAN XAVIER/EISENHOWER,Arizona,Pima,Mission Mine,31.99234,-111.0643,,,,,,,,,,,Arizona,AZ - Pima,Mission Complex,32.000005,-111.055231,Methane,0.010764,GHG,1.206999686,Cobre contenido en el concentrado,,42.8,,54.9,,57.8,,,,kt,Grupo Mxico Reporte Anual 2022,Active,Copper
ARIZONA,Pima,"ASARCO LLC, a Delaware Limited Liability Company",MISSION/SAN XAVIER/EISENHOWER,Arizona,Pima,Mission Mine,31.99234,-111.0643,,,,,,,,,,,Arizona,AZ - Pima,Mission Complex,32.000005,-111.055231,Chromium Compounds,0.000717,HAP,1.206999686,Cobre contenido en el concentrado,,42.8,,54.9,,57.8,,,,kt,Grupo Mxico Reporte Anual 2022,Active,Copper
ARIZONA,Pima,"ASARCO LLC, a Delaware Limited Liability Company",MISSION/SAN XAVIER/EISENHOWER,Arizona,Pima,Mission Mine,31.99234,-111.0643,,,,,,,,,,,Arizona,AZ - Pima,Mission Complex,32.000005,-111.055231,Lead Compounds,0.000717,CAP/HAP,1.206999686,Cobre contenido en el concentrado,,42.8,,54.9,,57.8,,,,kt,Grupo Mxico Reporte Anual 2022,Active,Copper
ARIZONA,Pima,"ASARCO LLC, a Delaware Limited Liability Company",MISSION/SAN XAVIER/EISENHOWER,Arizona,Pima,Mission Mine,31.99234,-111.0643,,,,,,,,,,,Arizona,AZ - Pima,Mission Complex,32.000005,-111.055231,Arsenic Compounds,0.000361,HAP,1.206999686,Cobre contenido en el concentrado,,42.8,,54.9,,57.8,,,,kt,Grupo Mxico Reporte Anual 2022,Active,Copper
ARIZONA,Pima,"ASARCO LLC, a Delaware Limited Liability Company",MISSION/SAN XAVIER/EISENHOWER,Arizona,Pima,Mission Mine,31.99234,-111.0643,,,,,,,,,,,Arizona,AZ - Pima,Mission Complex,32.000005,-111.055231,Cobalt Compounds,0.000288,HAP,1.206999686,Cobre contenido en el concentrado,,42.8,,54.9,,57.8,,,,kt,Grupo Mxico Reporte Anual 2022,Active,Copper
ARIZONA,Pima,"ASARCO LLC, a Delaware Limited Liability Company",MISSION/SAN XAVIER/EISENHOWER,Arizona,Pima,Mission Mine,31.99234,-111.0643,,,,,,,,,,,Arizona,AZ - Pima,Mission Complex,32.000005,-111.055231,Formaldehyde,0.000235,HAP,1.206999686,Cobre contenido en el concentrado,,42.8,,54.9,,57.8,,,,kt,Grupo Mxico Reporte Anual 2022,Active,Copper
ARIZONA,Pima,"ASARCO LLC, a Delaware Limited Liability Company",MISSION/SAN XAVIER/EISENHOWER,Arizona,Pima,Mission Mine,31.99234,-111.0643,,,,,,,,,,,Arizona,AZ - Pima,Mission Complex,32.000005,-111.055231,Antimony Compounds,0.000138,HAP,1.206999686,Cobre contenido en el concentrado,,42.8,,54.9,,57.8,,,,kt,Grupo Mxico Reporte Anual 2022,Active,Copper
ARIZONA,Pima,"ASARCO LLC, a Delaware Limited Liability Company",MISSION/SAN XAVIER/EISENHOWER,Arizona,Pima,Mission Mine,31.99234,-111.0643,,,,,,,,,,,Arizona,AZ - Pima,Mission Complex,32.000005,-111.055231,Cadmium Compounds,0.000092,HAP,1.206999686,Cobre contenido en el concentrado,,42.8,,54.9,,57.8,,,,kt,Grupo Mxico Reporte Anual 2022,Active,Copper
ARIZONA,Pima,"ASARCO LLC, a Delaware Limited Liability Company",MISSION/SAN XAVIER/EISENHOWER,Arizona,Pima,Mission Mine,31.99234,-111.0643,,,,,,,,,,,Arizona,AZ - Pima,Mission Complex,32.000005,-111.055231,Nitrous Oxide,0.000083,GHG,1.206999686,Cobre contenido en el concentrado,,42.8,,54.9,,57.8,,,,kt,Grupo Mxico Reporte Anual 2022,Active,Copper
ARIZONA,Pima,"ASARCO LLC, a Delaware Limited Liability Company",MISSION/SAN XAVIER/EISENHOWER,Arizona,Pima,Mission Mine,31.99234,-111.0643,,,,,,,,,,,Arizona,AZ - Pima,Mission Complex,32.000005,-111.055231,Acetaldehyde,0.000064,HAP,1.206999686,Cobre contenido en el concentrado,,42.8,,54.9,,57.8,,,,kt,Grupo Mxico Reporte Anual 2022,Active,Copper
ARIZONA,Pima,"ASARCO LLC, a Delaware Limited Liability Company",MISSION/SAN XAVIER/EISENHOWER,Arizona,Pima,Mission Mine,31.99234,-111.0643,,,,,,,,,,,Arizona,AZ - Pima,Mission Complex,32.000005,-111.055231,Nickel Compounds,0.000046,HAP,1.206999686,Cobre contenido en el concentrado,,42.8,,54.9,,57.8,,,,kt,Grupo Mxico Reporte Anual 2022,Active,Copper
ARIZONA,Pima,"ASARCO LLC, a Delaware Limited Liability Company",MISSION/SAN XAVIER/EISENHOWER,Arizona,Pima,Mission Mine,31.99234,-111.0643,,,,,,,,,,,Arizona,AZ - Pima,Mission Complex,32.000005,-111.055231,Acrolein,0.000026,HAP,1.206999686,Cobre contenido en el concentrado,,42.8,,54.9,,57.8,,,,kt,Grupo Mxico Reporte Anual 2022,Active,Copper
ARIZONA,Pima,"ASARCO LLC, a Delaware Limited Liability Company",MISSION/SAN XAVIER/EISENHOWER,Arizona,Pima,Mission Mine,31.99234,-111.0643,,,,,,,,,,,Arizona,AZ - Pima,Mission Complex,32.000005,-111.055231,Selenium Compounds,0.000026,HAP,1.206999686,Cobre contenido en el concentrado,,42.8,,54.9,,57.8,,,,kt,Grupo Mxico Reporte Anual 2022,Active,Copper
ARIZONA,Pima,"ASARCO LLC, a Delaware Limited Liability Company",MISSION/SAN XAVIER/EISENHOWER,Arizona,Pima,Mission Mine,31.99234,-111.0643,,,,,,,,,,,Arizona,AZ - Pima,Mission Complex,32.000005,-111.055231,Methanol,0.000025,HAP,1.206999686,Cobre contenido en el concentrado,,42.8,,54.9,,57.8,,,,kt,Grupo Mxico Reporte Anual 2022,Active,Copper
ARIZONA,Pima,"ASARCO LLC, a Delaware Limited Liability Company",MISSION/SAN XAVIER/EISENHOWER,Arizona,Pima,Mission Mine,31.99234,-111.0643,,,,,,,,,,,Arizona,AZ - Pima,Mission Complex,32.000005,-111.055231,"1,3-Butadiene",0.000001,HAP,1.206999686,Cobre contenido en el concentrado,,42.8,,54.9,,57.8,,,,kt,Grupo Mxico Reporte Anual 2022,Active,Copper
ARIZONA,Pima,"ASARCO LLC, a Delaware Limited Liability Company",MISSION/SAN XAVIER/EISENHOWER,Arizona,Pima,Mission Mine,31.99234,-111.0643,,,,,,,,,,,Arizona,AZ - Pima,Mission Complex,32.000005,-111.055231,Polycyclic Organic Matter,0.000001,HAP,1.206999686,Cobre contenido en el concentrado,,42.8,,54.9,,57.8,,,,kt,Grupo Mxico Reporte Anual 2022,Active,Copper
ARIZONA,Pima,"ASARCO LLC, a Delaware Limited Liability Company",MISSION/SAN XAVIER/EISENHOWER,Arizona,Pima,San Xavier Mine,31.97322,-111.09379,,,,,,,,,,,,,,,,,,,,,,,,,,,,,,,,Active,Copper
MINNESOTA,St Louis,NewRange Copper Nickel,Northmet,Minnessota,Lake,NorthMet Project,47.6,-91.96667,,,,,,,,,,,,,,,,,,,,,,,,,,,,,,,Northmet Project Technical Report 2018,Permits Issued,Copper
UTAH,Beaver,"Milford Mining Company Utah, LLC",OK and Hidden Treasure,Utah,Beaver,Hidden Treasure Mine,38.45496,-113.07691,,,,,,,,,,,,,,,,,,,,,,,,,,,,,,,,Inactive,Copper
ARIZONA,Gila,Pinto Valley Mining Corp.,Pinto Valley Mine,Arizona,Gila,Pinto Valley,33.41228,-110.9646,AZ,GILA,,PINTO VALLEY MINE,33.417445,-110.98421,Nickel,,,1.911836375,Arizona,AZ - Gila,BHP COPPER- PINTO VALLEY OPS-PV UNIT,33.417445,-110.98421,Ammonia,0.5205,CAP,1.911836375,Copper production (contained metal in concentrate and cathode),,,,16.51529819,,53.96297707,,53.35561689,,kt,Capstone Mining Pinto Valley Mine Technical Report 2021,Active,Copper
ARIZONA,Gila,Pinto Valley Mining Corp.,Pinto Valley Mine,Arizona,Gila,Pinto Valley,33.41228,-110.9646,AZ,GILA,,PINTO VALLEY MINE,33.417445,-110.98421,Manganese,,,1.911836375,Arizona,AZ - Gila,BHP COPPER- PINTO VALLEY OPS-PV UNIT,33.417445,-110.98421,Lead Compounds,0.4535,CAP/HAP,1.911836375,Copper production (contained metal in concentrate and cathode),,,,16.51529819,,53.96297707,,53.35561689,,kt,Capstone Mining Pinto Valley Mine Technical Report 2021,Active,Copper
ARIZONA,Gila,Pinto Valley Mining Corp.,Pinto Valley Mine,Arizona,Gila,Pinto Valley,33.41228,-110.9646,AZ,GILA,,PINTO VALLEY MINE,33.417445,-110.98421,Chromium,,,1.911836375,,,,,,,,,,Copper production (contained metal in concentrate and cathode),,,,16.51529819,,53.96297707,,53.35561689,,kt,Capstone Mining Pinto Valley Mine Technical Report 2021,Active,Copper
ARIZONA,Gila,Pinto Valley Mining Corp.,Pinto Valley Mine,Arizona,Gila,Pinto Valley,33.41228,-110.9646,AZ,GILA,,PINTO VALLEY MINE,33.417445,-110.98421,Nitrate compounds (water dissociable; reportable only when in aqueous solution),,,1.911836375,,,,,,,,,,Copper production (contained metal in concentrate and cathode),,,,16.51529819,,53.96297707,,53.35561689,,kt,Capstone Mining Pinto Valley Mine Technical Report 2021,Active,Copper
ARIZONA,Gila,Pinto Valley Mining Corp.,Pinto Valley Mine,Arizona,Gila,Pinto Valley,33.41228,-110.9646,AZ,GILA,,PINTO VALLEY MINE,33.417445,-110.98421,Ammonia,815,,1.911836375,,,,,,,,,,Copper production (contained metal in concentrate and cathode),,,,16.51529819,,53.96297707,,53.35561689,,kt,Capstone Mining Pinto Valley Mine Technical Report 2021,Active,Copper
ARIZONA,Gila,Pinto Valley Mining Corp.,Pinto Valley Mine,Arizona,Gila,Pinto Valley,33.41228,-110.9646,AZ,GILA,,PINTO VALLEY MINE,33.417445,-110.98421,Lead  And Lead Compounds,95,2,1.911836375,,,,,,,,,,Copper production (contained metal in concentrate and cathode),,,,16.51529819,,53.96297707,,53.35561689,,kt,Capstone Mining Pinto Valley Mine Technical Report 2021,Active,Copper
ARIZONA,Gila,Pinto Valley Mining Corp.,Pinto Valley Mine,Arizona,Gila,Pinto Valley,33.41228,-110.9646,AZ,GILA,,PINTO VALLEY MINE,33.417445,-110.98421,Copper  And Copper Compounds,379,7,1.911836375,,,,,,,,,,Copper production (contained metal in concentrate and cathode),,,,16.51529819,,53.96297707,,53.35561689,,kt,Capstone Mining Pinto Valley Mine Technical Report 2021,Active,Copper
ARIZONA,Gila,Asarco LLC,Ray Mine ,Arizona,Gila,Ray Eastern Copper Co Claims,33.26259,-110.88399,AZ,PINAL,AMERICAS MINING CORP,ASARCO LLC RAY MINE OPERATIONS,33.156,-110.978,Manganese,21,,,,,,,,,,,,Produccin de ctodos ESDE,Cobre contenido en el concentrado,11,36.8,11,39.2,11.4,37.9,,,kt,Grupo Mxico Reporte Anual 2022,Active,Copper
ARIZONA,Gila,Asarco LLC,Ray Mine ,Arizona,Gila,Ray Eastern Copper Co Claims,33.26259,-110.88399,AZ,PINAL,AMERICAS MINING CORP,ASARCO LLC RAY MINE OPERATIONS,33.156,-110.978,Nickel,5,,,,,,,,,,,,Produccin de ctodos ESDE,Cobre contenido en el concentrado,11,36.8,11,39.2,11.4,37.9,,,kt,Grupo Mxico Reporte Anual 2022,Active,Copper
ARIZONA,Gila,Asarco LLC,Ray Mine ,Arizona,Gila,Ray Eastern Copper Co Claims,33.26259,-110.88399,AZ,PINAL,AMERICAS MINING CORP,ASARCO LLC RAY MINE OPERATIONS,33.156,-110.978,Lead compounds,142.8,0.2,,,,,,,,,,,Produccin de ctodos ESDE,Cobre contenido en el concentrado,11,36.8,11,39.2,11.4,37.9,,,kt,Grupo Mxico Reporte Anual 2022,Active,Copper
ARIZONA,Gila,Asarco LLC,Ray Mine ,Arizona,Gila,Ray Eastern Copper Co Claims,33.26259,-110.88399,AZ,PINAL,AMERICAS MINING CORP,ASARCO LLC RAY MINE OPERATIONS,33.156,-110.978,Copper  And Copper Compounds,5217,13,,,,,,,,,,,Produccin de ctodos ESDE,Cobre contenido en el concentrado,11,36.8,11,39.2,11.4,37.9,,,kt,Grupo Mxico Reporte Anual 2022,Active,Copper
ARIZONA,Gila,Asarco LLC,Ray Mine ,Arizona,Gila,Ray Eastern Copper Co Claims,33.26259,-110.88399,AZ,PINAL,AMERICAS MINING CORP,ASARCO LLC RAY MINE OPERATIONS,33.156,-110.978,Chromium,6,,,,,,,,,,,,Produccin de ctodos ESDE,Cobre contenido en el concentrado,11,36.8,11,39.2,11.4,37.9,,,kt,Grupo Mxico Reporte Anual 2022,Active,Copper
ARIZONA,Gila,Asarco LLC,Ray Mine ,Arizona,Gila,Ray Eastern Copper Co Claims,33.26259,-110.88399,AZ,PINAL,AMERICAS MINING CORP,ASARCO LLC RAY MINE OPERATIONS,33.156,-110.978,Ammonia,,,,,,,,,,,,,Produccin de ctodos ESDE,Cobre contenido en el concentrado,11,36.8,11,39.2,11.4,37.9,,,kt,Grupo Mxico Reporte Anual 2022,Active,Copper
ARIZONA,Gila,Asarco LLC,Ray Mine ,Arizona,Gila,Ray Eastern Copper Co Claims,33.26259,-110.88399,AZ,PINAL,AMERICAS MINING CORP,ASARCO LLC RAY MINE OPERATIONS,33.156,-110.978,Nitrate compounds (water dissociable; reportable only when in aqueous solution),,,,,,,,,,,,,Produccin de ctodos ESDE,Cobre contenido en el concentrado,11,36.8,11,39.2,11.4,37.9,,,kt,Grupo Mxico Reporte Anual 2022,Active,Copper
ARIZONA,Gila,Asarco LLC,Ray Mine ,Arizona,Gila,Ray Eastern Copper Co Claims,33.26259,-110.88399,AZ,PINAL,AMERICAS MINING CORP,ASARCO LLC RAY MINE OPERATIONS,33.156,-110.978,Mercury  And Mercury Compounds,20.2,0.1,,,,,,,,,,,Produccin de ctodos ESDE,Cobre contenido en el concentrado,11,36.8,11,39.2,11.4,37.9,,,kt,Grupo Mxico Reporte Anual 2022,Active,Copper
ARIZONA,Gila,Asarco LLC,Ray Mine ,Arizona,Gila,Ray Eastern Copper Co Claims,33.26259,-110.88399,AZ,PINAL,AMERICAS MINING CORP,ASARCO LLC RAY MINE OPERATIONS,33.156,-110.978,Cobalt compounds,,,,,,,,,,,,,Produccin de ctodos ESDE,Cobre contenido en el concentrado,11,36.8,11,39.2,11.4,37.9,,,kt,Grupo Mxico Reporte Anual 2022,Active,Copper
Nevada,White Pine,Robinson Nevada Mining Company,Robinson Operation,Nevada,White Pine,Robinson Mine,39.25661,-114.99948,NV,WHITE PINE,,ROBINSON NEVADA MINING CO,39.28107,-114.992175,Lead  And Lead Compounds,160,1.3,2.787776675,Nevada,NV - White Pine,ROBINSON OPERATIONS,39.260229,-115.011293,PM10 Primary (Filt + Cond),32.51446724,CAP,1.095893647,Payable Cu production,,46.8,,,,,,,,kt,KGHM Integrated Report 2022,Active,Copper
Nevada,White Pine,Robinson Nevada Mining Company,Robinson Operation,Nevada,White Pine,Robinson Mine,39.25661,-114.99948,NV,WHITE PINE,,ROBINSON NEVADA MINING CO,39.28107,-114.992175,Methanol,5000,110,2.787776675,Nevada,NV - White Pine,ROBINSON OPERATIONS,39.260229,-115.011293,PM2.5 Primary (Filt + Cond),13.43476194,CAP,1.095893647,Payable Cu production,,46.8,,,,,,,,kt,KGHM Integrated Report 2022,Active,Copper
Nevada,White Pine,Robinson Nevada Mining Company,Robinson Operation,Nevada,White Pine,Robinson Mine,39.25661,-114.99948,NV,WHITE PINE,,ROBINSON NEVADA MINING CO,39.28107,-114.992175,Chromium,,,2.787776675,Nevada,NV - White Pine,ROBINSON OPERATIONS,39.260229,-115.011293,Methanol,7.66,HAP,1.095893647,Payable Cu production,,46.8,,,,,,,,kt,KGHM Integrated Report 2022,Active,Copper
Nevada,White Pine,Robinson Nevada Mining Company,Robinson Operation,Nevada,White Pine,Robinson Mine,39.25661,-114.99948,NV,WHITE PINE,,ROBINSON NEVADA MINING CO,39.28107,-114.992175,Copper,,,2.787776675,Nevada,NV - White Pine,ROBINSON OPERATIONS,39.260229,-115.011293,Volatile Organic Compounds,1.21974696,CAP,1.095893647,Payable Cu production,,46.8,,,,,,,,kt,KGHM Integrated Report 2022,Active,Copper
Nevada,White Pine,Robinson Nevada Mining Company,Robinson Operation,Nevada,White Pine,Robinson Mine,39.25661,-114.99948,NV,WHITE PINE,,ROBINSON NEVADA MINING CO,39.28107,-114.992175,Naphthalene,,,2.787776675,Nevada,NV - White Pine,ROBINSON OPERATIONS,39.260229,-115.011293,Ammonia,0.5,CAP,1.095893647,Payable Cu production,,46.8,,,,,,,,kt,KGHM Integrated Report 2022,Active,Copper
Nevada,White Pine,Robinson Nevada Mining Company,Robinson Operation,Nevada,White Pine,Robinson Mine,39.25661,-114.99948,NV,WHITE PINE,,ROBINSON NEVADA MINING CO,39.28107,-114.992175,Nitrate compounds (water dissociable; reportable only when in aqueous solution),,,2.787776675,Nevada,NV - White Pine,ROBINSON OPERATIONS,39.260229,-115.011293,Carbon Monoxide,0.15414875,CAP,1.095893647,Payable Cu production,,46.8,,,,,,,,kt,KGHM Integrated Report 2022,Active,Copper
Nevada,White Pine,Robinson Nevada Mining Company,Robinson Operation,Nevada,White Pine,Robinson Mine,39.25661,-114.99948,NV,WHITE PINE,,ROBINSON NEVADA MINING CO,39.28107,-114.992175,Nickel,,,2.787776675,Nevada,NV - White Pine,ROBINSON OPERATIONS,39.260229,-115.011293,Nitrogen Oxides,0.15033922,CAP,1.095893647,Payable Cu production,,46.8,,,,,,,,kt,KGHM Integrated Report 2022,Active,Copper
Nevada,White Pine,Robinson Nevada Mining Company,Robinson Operation,Nevada,White Pine,Robinson Mine,39.25661,-114.99948,NV,WHITE PINE,,ROBINSON NEVADA MINING CO,39.28107,-114.992175,Manganese,4,,2.787776675,Nevada,NV - White Pine,ROBINSON OPERATIONS,39.260229,-115.011293,Lead Compounds,0.02985,CAP/HAP,1.095893647,Payable Cu production,,46.8,,,,,,,,kt,KGHM Integrated Report 2022,Active,Copper
Nevada,White Pine,Robinson Nevada Mining Company,Robinson Operation,Nevada,White Pine,Robinson Mine,39.25661,-114.99948,NV,WHITE PINE,,ROBINSON NEVADA MINING CO,39.28107,-114.992175,Mercury compounds,0.1,,2.787776675,Nevada,NV - White Pine,ROBINSON OPERATIONS,39.260229,-115.011293,Sulfur Dioxide,0.007942854,CAP,1.095893647,Payable Cu production,,46.8,,,,,,,,kt,KGHM Integrated Report 2022,Active,Copper
Nevada,White Pine,Robinson Nevada Mining Company,Robinson Operation,Nevada,White Pine,Robinson Mine,39.25661,-114.99948,NV,WHITE PINE,,ROBINSON NEVADA MINING CO,39.28107,-114.992175,Ammonia,1500,,2.787776675,Nevada,NV - White Pine,ROBINSON OPERATIONS,39.260229,-115.011293,Manganese Compounds,0.0025,HAP,1.095893647,Payable Cu production,,46.8,,,,,,,,kt,KGHM Integrated Report 2022,Active,Copper
Nevada,White Pine,Robinson Nevada Mining Company,Robinson Operation,Nevada,White Pine,Robinson Mine,39.25661,-114.99948,,,,,,,,,,,Nevada,NV - White Pine,ROBINSON OPERATIONS,39.260229,-115.011293,Mercury Compounds,0.00005,HAP,1.095893647,Payable Cu production,,46.8,,,,,,,,kt,KGHM Integrated Report 2022,Active,Copper
Nevada,White Pine,Robinson Nevada Mining Company,Robinson Operation,Nevada,White Pine,Robinson Mine,39.25661,-114.99948,,,,,,,,,,,Nevada,NV - White Pine,ROBINSON OPERATIONS,39.260229,-115.011293,Formaldehyde,3.25E-05,HAP,1.095893647,Payable Cu production,,46.8,,,,,,,,kt,KGHM Integrated Report 2022,Active,Copper
Nevada,White Pine,Robinson Nevada Mining Company,Robinson Operation,Nevada,White Pine,Robinson Mine,39.25661,-114.99948,,,,,,,,,,,Nevada,NV - White Pine,ROBINSON OPERATIONS,39.260229,-115.011293,Benzene,3.25E-05,HAP,1.095893647,Payable Cu production,,46.8,,,,,,,,kt,KGHM Integrated Report 2022,Active,Copper
Nevada,White Pine,Robinson Nevada Mining Company,Robinson Operation,Nevada,White Pine,Robinson Mine,39.25661,-114.99948,,,,,,,,,,,Nevada,NV - White Pine,ROBINSON OPERATIONS,39.260229,-115.011293,Acetaldehyde,2.09E-05,HAP,1.095893647,Payable Cu production,,46.8,,,,,,,,kt,KGHM Integrated Report 2022,Active,Copper
Nevada,White Pine,Robinson Nevada Mining Company,Robinson Operation,Nevada,White Pine,Robinson Mine,39.25661,-114.99948,,,,,,,,,,,Nevada,NV - White Pine,ROBINSON OPERATIONS,39.260229,-115.011293,Toluene,1.37E-05,HAP,1.095893647,Payable Cu production,,46.8,,,,,,,,kt,KGHM Integrated Report 2022,Active,Copper
Nevada,White Pine,Robinson Nevada Mining Company,Robinson Operation,Nevada,White Pine,Robinson Mine,39.25661,-114.99948,,,,,,,,,,,Nevada,NV - White Pine,ROBINSON OPERATIONS,39.260229,-115.011293,Xylenes (Mixed Isomers),9.52E-06,HAP,1.095893647,Payable Cu production,,46.8,,,,,,,,kt,KGHM Integrated Report 2022,Active,Copper
Nevada,White Pine,Robinson Nevada Mining Company,Robinson Operation,Nevada,White Pine,Robinson Mine,39.25661,-114.99948,,,,,,,,,,,Nevada,NV - White Pine,ROBINSON OPERATIONS,39.260229,-115.011293,Naphthalene,3.52E-06,HAP,1.095893647,Payable Cu production,,46.8,,,,,,,,kt,KGHM Integrated Report 2022,Active,Copper
Nevada,White Pine,Robinson Nevada Mining Company,Robinson Operation,Nevada,White Pine,Robinson Mine,39.25661,-114.99948,,,,,,,,,,,Nevada,NV - White Pine,ROBINSON OPERATIONS,39.260229,-115.011293,Polycyclic Organic Matter,3.29E-06,HAP,1.095893647,Payable Cu production,,46.8,,,,,,,,kt,KGHM Integrated Report 2022,Active,Copper
Nevada,White Pine,Robinson Nevada Mining Company,Robinson Operation,Nevada,White Pine,Robinson Mine,39.25661,-114.99948,,,,,,,,,,,Nevada,NV - White Pine,ROBINSON OPERATIONS,39.260229,-115.011293,Acrolein,7.52E-08,HAP,1.095893647,Payable Cu production,,46.8,,,,,,,,kt,KGHM Integrated Report 2022,Active,Copper
Arizona,Pima,"ASARCO LLC, a Delaware Limited Liability Company",Silver Bell Mining LLC,Arizona,Pima,Silver Bell mine,32.39371,-111.5015,AZ,PIMA,AMERICAS MINING CORP,SILVER BELL MINING LLC,32.391474,-111.496934,Cobalt compounds,,,0.496029865,,,,,,,,,,Produccin de ctodos ESDE,,21.5,,21.4,,20.4,,,,kt,Grupo Mxico Reporte Anual 2022,Active,Copper
Arizona,Pima,"ASARCO LLC, a Delaware Limited Liability Company",Silver Bell Mining LLC,Arizona,Pima,Silver Bell mine,32.39371,-111.5015,AZ,PIMA,AMERICAS MINING CORP,SILVER BELL MINING LLC,32.391474,-111.496934,"Sulfuric acid (acid aerosols including mists, vapors, gas, fog, and other airborne forms of any particle size)",3237.7,0.019,0.496029865,,,,,,,,,,Produccin de ctodos ESDE,,21.5,,21.4,,20.4,,,,kt,Grupo Mxico Reporte Anual 2022,Active,Copper
Arizona,Pima,"ASARCO LLC, a Delaware Limited Liability Company",Silver Bell Mining LLC,Arizona,Pima,Silver Bell mine,32.39371,-111.5015,AZ,PIMA,AMERICAS MINING CORP,SILVER BELL MINING LLC,32.391474,-111.496934,Lead  And Lead Compounds,0.01,,0.496029865,,,,,,,,,,Produccin de ctodos ESDE,,21.5,,21.4,,20.4,,,,kt,Grupo Mxico Reporte Anual 2022,Active,Copper
Arizona,Pima,"ASARCO LLC, a Delaware Limited Liability Company",Silver Bell Mining LLC,Arizona,Pima,Silver Bell mine,32.39371,-111.5015,AZ,PIMA,AMERICAS MINING CORP,SILVER BELL MINING LLC,32.391474,-111.496934,Copper  And Copper Compounds,7.69,,0.496029865,,,,,,,,,,Produccin de ctodos ESDE,,21.5,,21.4,,20.4,,,,kt,Grupo Mxico Reporte Anual 2022,Active,Copper
Arizona,Pima,"ASARCO LLC, a Delaware Limited Liability Company",Silver Bell Mining LLC,Arizona,Pima,Silver Bell mine,32.39371,-111.5015,AZ,PIMA,AMERICAS MINING CORP,SILVER BELL MINING LLC,32.391474,-111.496934,Ammonia,,,0.496029865,,,,,,,,,,Produccin de ctodos ESDE,,21.5,,21.4,,20.4,,,,kt,Grupo Mxico Reporte Anual 2022,Active,Copper
Arizona,Pima,"ASARCO LLC, a Delaware Limited Liability Company",Silver Bell Mining LLC,Arizona,Pima,Silver Bell mine,32.39371,-111.5015,AZ,PIMA,AMERICAS MINING CORP,SILVER BELL MINING LLC,32.391474,-111.496934,Nitrate compounds (water dissociable; reportable only when in aqueous solution),,,0.496029865,,,,,,,,,,Produccin de ctodos ESDE,,21.5,,21.4,,20.4,,,,kt,Grupo Mxico Reporte Anual 2022,Active,Copper
Nevada,Esmeralda,Foote Mineral Company,Silverpeak Mine & Mill,Nevada,Esmeralda,Silver Peak,37.74994,-117.63425,,,,,,,,,,,Nevada,NV - Esmeralda,SILVER PEAK OPERATIONS,37.75246,-117.63948,Nitrogen Oxides,4.936263,CAP,0.539139113,Lithium Carbonate,,,,6.198,,3.92,,3.586,,kt,SEC Technical Report Summary,Active,Lithium
Nevada,Esmeralda,Foote Mineral Company,Silverpeak Mine & Mill,Nevada,Esmeralda,Silver Peak,37.74994,-117.63425,,,,,,,,,,,Nevada,NV - Esmeralda,SILVER PEAK OPERATIONS,37.75246,-117.63948,Carbon Monoxide,2.847847,CAP,0.539139113,Lithium Carbonate,,,,6.198,,3.92,,3.586,,kt,SEC Technical Report Summary,Active,Lithium
Nevada,Esmeralda,Foote Mineral Company,Silverpeak Mine & Mill,Nevada,Esmeralda,Silver Peak,37.74994,-117.63425,,,,,,,,,,,Nevada,NV - Esmeralda,SILVER PEAK OPERATIONS,37.75246,-117.63948,PM10 Primary (Filt + Cond),2.078187464,CAP,0.539139113,Lithium Carbonate,,,,6.198,,3.92,,3.586,,kt,SEC Technical Report Summary,Active,Lithium
Nevada,Esmeralda,Foote Mineral Company,Silverpeak Mine & Mill,Nevada,Esmeralda,Silver Peak,37.74994,-117.63425,,,,,,,,,,,Nevada,NV - Esmeralda,SILVER PEAK OPERATIONS,37.75246,-117.63948,PM2.5 Primary (Filt + Cond),1.999464944,CAP,0.539139113,Lithium Carbonate,,,,6.198,,3.92,,3.586,,kt,SEC Technical Report Summary,Active,Lithium
Nevada,Esmeralda,Foote Mineral Company,Silverpeak Mine & Mill,Nevada,Esmeralda,Silver Peak,37.74994,-117.63425,,,,,,,,,,,Nevada,NV - Esmeralda,SILVER PEAK OPERATIONS,37.75246,-117.63948,Volatile Organic Compounds,0.280774,CAP,0.539139113,Lithium Carbonate,,,,6.198,,3.92,,3.586,,kt,SEC Technical Report Summary,Active,Lithium
Nevada,Esmeralda,Foote Mineral Company,Silverpeak Mine & Mill,Nevada,Esmeralda,Silver Peak,37.74994,-117.63425,,,,,,,,,,,Nevada,NV - Esmeralda,SILVER PEAK OPERATIONS,37.75246,-117.63948,Sulfur Dioxide,0.05418035,CAP,0.539139113,Lithium Carbonate,,,,6.198,,3.92,,3.586,,kt,SEC Technical Report Summary,Active,Lithium
Nevada,Esmeralda,Foote Mineral Company,Silverpeak Mine & Mill,Nevada,Esmeralda,Silver Peak,37.74994,-117.63425,,,,,,,,,,,Nevada,NV - Esmeralda,SILVER PEAK OPERATIONS,37.75246,-117.63948,Formaldehyde,0.000855218,HAP,0.539139113,Lithium Carbonate,,,,6.198,,3.92,,3.586,,kt,SEC Technical Report Summary,Active,Lithium
Nevada,Esmeralda,Foote Mineral Company,Silverpeak Mine & Mill,Nevada,Esmeralda,Silver Peak,37.74994,-117.63425,,,,,,,,,,,Nevada,NV - Esmeralda,SILVER PEAK OPERATIONS,37.75246,-117.63948,Benzene,0.000675443,HAP,0.539139113,Lithium Carbonate,,,,6.198,,3.92,,3.586,,kt,SEC Technical Report Summary,Active,Lithium
Nevada,Esmeralda,Foote Mineral Company,Silverpeak Mine & Mill,Nevada,Esmeralda,Silver Peak,37.74994,-117.63425,,,,,,,,,,,Nevada,NV - Esmeralda,SILVER PEAK OPERATIONS,37.75246,-117.63948,Acetaldehyde,0.000554736,HAP,0.539139113,Lithium Carbonate,,,,6.198,,3.92,,3.586,,kt,SEC Technical Report Summary,Active,Lithium
Nevada,Esmeralda,Foote Mineral Company,Silverpeak Mine & Mill,Nevada,Esmeralda,Silver Peak,37.74994,-117.63425,,,,,,,,,,,Nevada,NV - Esmeralda,SILVER PEAK OPERATIONS,37.75246,-117.63948,Polycyclic Organic Matter,0.000432232,HAP,0.539139113,Lithium Carbonate,,,,6.198,,3.92,,3.586,,kt,SEC Technical Report Summary,Active,Lithium
Nevada,Esmeralda,Foote Mineral Company,Silverpeak Mine & Mill,Nevada,Esmeralda,Silver Peak,37.74994,-117.63425,,,,,,,,,,,Nevada,NV - Esmeralda,SILVER PEAK OPERATIONS,37.75246,-117.63948,Toluene,0.000295346,HAP,0.539139113,Lithium Carbonate,,,,6.198,,3.92,,3.586,,kt,SEC Technical Report Summary,Active,Lithium
Nevada,Esmeralda,Foote Mineral Company,Silverpeak Mine & Mill,Nevada,Esmeralda,Silver Peak,37.74994,-117.63425,,,,,,,,,,,Nevada,NV - Esmeralda,SILVER PEAK OPERATIONS,37.75246,-117.63948,Xylenes (Mixed Isomers),0.000206486,HAP,0.539139113,Lithium Carbonate,,,,6.198,,3.92,,3.586,,kt,SEC Technical Report Summary,Active,Lithium
Nevada,Esmeralda,Foote Mineral Company,Silverpeak Mine & Mill,Nevada,Esmeralda,Silver Peak,37.74994,-117.63425,,,,,,,,,,,Nevada,NV - Esmeralda,SILVER PEAK OPERATIONS,37.75246,-117.63948,Naphthalene,6.14E-05,HAP,0.539139113,Lithium Carbonate,,,,6.198,,3.92,,3.586,,kt,SEC Technical Report Summary,Active,Lithium
Nevada,Esmeralda,Foote Mineral Company,Silverpeak Mine & Mill,Nevada,Esmeralda,Silver Peak,37.74994,-117.63425,,,,,,,,,,,Nevada,NV - Esmeralda,SILVER PEAK OPERATIONS,37.75246,-117.63948,Mercury Compounds,1.79E-06,HAP,0.539139113,Lithium Carbonate,,,,6.198,,3.92,,3.586,,kt,SEC Technical Report Summary,Active,Lithium
Montana,Lincoln,Troy Mine Inc.,Troy Mine ,Montana,Lincoln,Troy,48.22927,-115.90464,,,,,,,,,,,,,,,,,,,,,,,,,,,,,,,Daily Inter Lake,Inactive,Copper
New Mexico,Grant,Freeport-McMoRan Tyrone Inc,TYRONE MINE,New Mexico,Grant,Tyrone Mine,32.6404,-108.37284,NM,GRANT,FREEPORT-MCMORAN INC,FREEPORT-MCMORAN TYRONE INC.,32.660278,-108.371666,Copper  And Copper Compounds,5,,2.207185461,New Mexico,NM - Grant,Tyrone Mine,32.650833,-108.3675,Carbon Dioxide,3033.847291,GHG,1.260823969,Copper production,,,,24.94758035,,20.41165665,,21.77243376,,kt,Freeport-McMoran Annual Report 2022,Active,Copper
New Mexico,Grant,Freeport-McMoRan Tyrone Inc,TYRONE MINE,New Mexico,Grant,Tyrone Mine,32.6404,-108.37284,NM,GRANT,FREEPORT-MCMORAN INC,FREEPORT-MCMORAN TYRONE INC.,32.660278,-108.371666,Ammonia,,,2.207185461,New Mexico,NM - Grant,Tyrone Mine,32.650833,-108.3675,Carbon Monoxide,106.451,CAP,1.260823969,Copper production,,,,24.94758035,,20.41165665,,21.77243376,,kt,Freeport-McMoran Annual Report 2022,Active,Copper
New Mexico,Grant,Freeport-McMoRan Tyrone Inc,TYRONE MINE,New Mexico,Grant,Tyrone Mine,32.6404,-108.37284,NM,GRANT,FREEPORT-MCMORAN INC,FREEPORT-MCMORAN TYRONE INC.,32.660278,-108.371666,Cobalt compounds,,,2.207185461,New Mexico,NM - Grant,Tyrone Mine,32.650833,-108.3675,PM10 Primary (Filt + Cond),66.811,CAP,1.260823969,Copper production,,,,24.94758035,,20.41165665,,21.77243376,,kt,Freeport-McMoran Annual Report 2022,Active,Copper
New Mexico,Grant,Freeport-McMoRan Tyrone Inc,TYRONE MINE,New Mexico,Grant,Tyrone Mine,32.6404,-108.37284,NM,GRANT,FREEPORT-MCMORAN INC,FREEPORT-MCMORAN TYRONE INC.,32.660278,-108.371666,Manganese,,,2.207185461,New Mexico,NM - Grant,Tyrone Mine,32.650833,-108.3675,Nitrogen Oxides,23.061,CAP,1.260823969,Copper production,,,,24.94758035,,20.41165665,,21.77243376,,kt,Freeport-McMoran Annual Report 2022,Active,Copper
New Mexico,Grant,Freeport-McMoRan Tyrone Inc,TYRONE MINE,New Mexico,Grant,Tyrone Mine,32.6404,-108.37284,NM,GRANT,FREEPORT-MCMORAN INC,FREEPORT-MCMORAN TYRONE INC.,32.660278,-108.371666,"Sulfuric acid (acid aerosols including mists, vapors, gas, fog, and other airborne forms of any particle size)",10000,,2.207185461,New Mexico,NM - Grant,Tyrone Mine,32.650833,-108.3675,Volatile Organic Compounds,7.91,CAP,1.260823969,Copper production,,,,24.94758035,,20.41165665,,21.77243376,,kt,Freeport-McMoran Annual Report 2022,Active,Copper
New Mexico,Grant,Freeport-McMoRan Tyrone Inc,TYRONE MINE,New Mexico,Grant,Tyrone Mine,32.6404,-108.37284,NM,GRANT,FREEPORT-MCMORAN INC,FREEPORT-MCMORAN TYRONE INC.,32.660278,-108.371666,Lead  And Lead Compounds,21.2,,2.207185461,New Mexico,NM - Grant,Tyrone Mine,32.650833,-108.3675,PM2.5 Primary (Filt + Cond),7.89548,CAP,1.260823969,Copper production,,,,24.94758035,,20.41165665,,21.77243376,,kt,Freeport-McMoran Annual Report 2022,Active,Copper
New Mexico,Grant,Freeport-McMoRan Tyrone Inc,TYRONE MINE,New Mexico,Grant,Tyrone Mine,32.6404,-108.37284,NM,GRANT,FREEPORT-MCMORAN INC,FREEPORT-MCMORAN TYRONE INC.,32.660278,-108.371666,Nitrate compounds (water dissociable; reportable only when in aqueous solution),,,2.207185461,New Mexico,NM - Grant,Tyrone Mine,32.650833,-108.3675,Sulfur Dioxide,3.605,CAP,1.260823969,Copper production,,,,24.94758035,,20.41165665,,21.77243376,,kt,Freeport-McMoran Annual Report 2022,Active,Copper
New Mexico,Grant,Freeport-McMoRan Tyrone Inc,TYRONE MINE,New Mexico,Grant,Tyrone Mine,32.6404,-108.37284,,,,,,,,,,,New Mexico,NM - Grant,Tyrone Mine,32.650833,-108.3675,Toluene,1.014,HAP,1.260823969,Copper production,,,,24.94758035,,20.41165665,,21.77243376,,kt,Freeport-McMoran Annual Report 2022,Active,Copper
New Mexico,Grant,Freeport-McMoRan Tyrone Inc,TYRONE MINE,New Mexico,Grant,Tyrone Mine,32.6404,-108.37284,,,,,,,,,,,New Mexico,NM - Grant,Tyrone Mine,32.650833,-108.3675,Methane,0.116845001,GHG,1.260823969,Copper production,,,,24.94758035,,20.41165665,,21.77243376,,kt,Freeport-McMoran Annual Report 2022,Active,Copper
New Mexico,Grant,Freeport-McMoRan Tyrone Inc,TYRONE MINE,New Mexico,Grant,Tyrone Mine,32.6404,-108.37284,,,,,,,,,,,New Mexico,NM - Grant,Tyrone Mine,32.650833,-108.3675,Xylenes (Mixed Isomers),0.099,HAP,1.260823969,Copper production,,,,24.94758035,,20.41165665,,21.77243376,,kt,Freeport-McMoran Annual Report 2022,Active,Copper
New Mexico,Grant,Freeport-McMoRan Tyrone Inc,TYRONE MINE,New Mexico,Grant,Tyrone Mine,32.6404,-108.37284,,,,,,,,,,,New Mexico,NM - Grant,Tyrone Mine,32.650833,-108.3675,Ethylbenzene,0.096,HAP,1.260823969,Copper production,,,,24.94758035,,20.41165665,,21.77243376,,kt,Freeport-McMoran Annual Report 2022,Active,Copper
New Mexico,Grant,Freeport-McMoRan Tyrone Inc,TYRONE MINE,New Mexico,Grant,Tyrone Mine,32.6404,-108.37284,,,,,,,,,,,New Mexico,NM - Grant,Tyrone Mine,32.650833,-108.3675,Benzene,0.088,HAP,1.260823969,Copper production,,,,24.94758035,,20.41165665,,21.77243376,,kt,Freeport-McMoran Annual Report 2022,Active,Copper
New Mexico,Grant,Freeport-McMoRan Tyrone Inc,TYRONE MINE,New Mexico,Grant,Tyrone Mine,32.6404,-108.37284,,,,,,,,,,,New Mexico,NM - Grant,Tyrone Mine,32.650833,-108.3675,Nitrous Oxide,0.023148538,GHG,1.260823969,Copper production,,,,24.94758035,,20.41165665,,21.77243376,,kt,Freeport-McMoran Annual Report 2022,Active,Copper
New Mexico,Grant,Freeport-McMoRan Tyrone Inc,TYRONE MINE,New Mexico,Grant,Tyrone Mine,32.6404,-108.37284,,,,,,,,,,,New Mexico,NM - Grant,Tyrone Mine,32.650833,-108.3675,Lead Compounds,0.0108,CAP/HAP,1.260823969,Copper production,,,,24.94758035,,20.41165665,,21.77243376,,kt,Freeport-McMoran Annual Report 2022,Active,Copper
New Mexico,Grant,Freeport-McMoRan Tyrone Inc,TYRONE MINE,New Mexico,Grant,Tyrone Mine,32.6404,-108.37284,,,,,,,,,,,New Mexico,NM - Grant,Tyrone Mine,32.650833,-108.3675,Formaldehyde,0.00390609,HAP,1.260823969,Copper production,,,,24.94758035,,20.41165665,,21.77243376,,kt,Freeport-McMoran Annual Report 2022,Active,Copper
New Mexico,Grant,Freeport-McMoRan Tyrone Inc,TYRONE MINE,New Mexico,Grant,Tyrone Mine,32.6404,-108.37284,,,,,,,,,,,New Mexico,NM - Grant,Tyrone Mine,32.650833,-108.3675,Acetaldehyde,0.00253368,HAP,1.260823969,Copper production,,,,24.94758035,,20.41165665,,21.77243376,,kt,Freeport-McMoran Annual Report 2022,Active,Copper
New Mexico,Grant,Freeport-McMoRan Tyrone Inc,TYRONE MINE,New Mexico,Grant,Tyrone Mine,32.6404,-108.37284,,,,,,,,,,,New Mexico,NM - Grant,Tyrone Mine,32.650833,-108.3675,Naphthalene,0.000280347,HAP,1.260823969,Copper production,,,,24.94758035,,20.41165665,,21.77243376,,kt,Freeport-McMoran Annual Report 2022,Active,Copper
New Mexico,Grant,Freeport-McMoRan Tyrone Inc,TYRONE MINE,New Mexico,Grant,Tyrone Mine,32.6404,-108.37284,,,,,,,,,,,New Mexico,NM - Grant,Tyrone Mine,32.650833,-108.3675,Polycyclic Organic Matter,0.000163462,HAP,1.260823969,Copper production,,,,24.94758035,,20.41165665,,21.77243376,,kt,Freeport-McMoran Annual Report 2022,Active,Copper
New Mexico,Grant,Freeport-McMoRan Tyrone Inc,TYRONE MINE,New Mexico,Grant,Tyrone Mine,32.6404,-108.37284,,,,,,,,,,,New Mexico,NM - Grant,Tyrone Mine,32.650833,-108.3675,Mercury Compounds,6.68E-07,HAP,1.260823969,Copper production,,,,24.94758035,,20.41165665,,21.77243376,,kt,Freeport-McMoran Annual Report 2022,Active,Copper
Nevada,Lyon,,Pumpkin Hollow Copper Project,Nevada,Lyon,Pumpkin Hollow Copper Project,38.94685,-119.28098,,,,,,,,,,,,,,,,,,,,,,,,,,,,,,,,Inactive,Copper
Arizona,Cochise,,Northern Gunnison Hills Mines,Arizona,Cochise,Northern Gunnison Hills Mines,32.12042,-110.02236,,,,,,,,,,,,,,,,,,,,,,,,,,,,,,,,Inactive,Copper
North Carolina,Cleveland,Cyprus Foote Mineral Company,Kings Mountain Mine & Mineral Plant,North Carolina,Cleveland,Kings Mountain,35.25011,-81.34982,NC,CLEVELAND,CONCRETE SUPPLY CO LLC,CONCRETE SUPPLY CO - KINGS MOUTAIN,35.22367,-81.3369,Lead  And Lead Compounds,,0.0076,,,,,,,,,,,,,,,,,,,,,,,In Construction,Lithium
Nevada,Humboldt,Lithium Nevada Corp.,Thacker Pass,,,,41.7084028,-118.0547556,,,,,,,,,,,,,,,,,,,,,,,,,,,,,,,,In Construction,Lithium